{
"type": "FeatureCollection",
"name": "Lagos y Construcciones",
"crs": { "type": "name", "properties": { "name": "urn:ogc:def:crs:EPSG::3116" } },
"features": [
{ "type": "Feature", "properties": { "Layer": "LAGO Y CONSTRUCCIONES", "PaperSpace": null, "SubClasses": "AcDbEntity:AcDbHatch", "Linetype": null, "EntityHand": "12D3", "Text": "SOLID" }, "geometry": { "type": "MultiLineString", "coordinates": [ [ [ 849595.696724417270161, 1169038.469631506130099 ], [ 849591.324284037691541, 1169041.793310394510627 ] ] ] } },
{ "type": "Feature", "properties": { "Layer": "LAGO Y CONSTRUCCIONES", "PaperSpace": null, "SubClasses": "AcDbEntity:AcDbHatch", "Linetype": null, "EntityHand": "12D3", "Text": "SOLID" }, "geometry": { "type": "MultiLineString", "coordinates": [ [ [ 849591.324284037691541, 1169041.793310394510627 ], [ 849584.979431328945793, 1169033.446387866977602 ] ] ] } },
{ "type": "Feature", "properties": { "Layer": "LAGO Y CONSTRUCCIONES", "PaperSpace": null, "SubClasses": "AcDbEntity:AcDbHatch", "Linetype": null, "EntityHand": "12D3", "Text": "SOLID" }, "geometry": { "type": "MultiLineString", "coordinates": [ [ [ 849584.979431328945793, 1169033.446387866977602 ], [ 849589.203223627177067, 1169030.235702741192654 ] ] ] } },
{ "type": "Feature", "properties": { "Layer": "LAGO Y CONSTRUCCIONES", "PaperSpace": null, "SubClasses": "AcDbEntity:AcDbHatch", "Linetype": null, "EntityHand": "12D3", "Text": "SOLID" }, "geometry": { "type": "MultiLineString", "coordinates": [ [ [ 849589.203223627177067, 1169030.235702741192654 ], [ 849595.696724417270161, 1169038.469631506130099 ] ] ] } },
{ "type": "Feature", "properties": { "Layer": "LAGO Y CONSTRUCCIONES", "PaperSpace": null, "SubClasses": "AcDbEntity:AcDbHatch", "Linetype": null, "EntityHand": "12D3", "Text": "SOLID" }, "geometry": { "type": "MultiLineString", "coordinates": [ [ [ 849579.96938068640884, 1169016.553752727573738 ], [ 849575.442840622505173, 1169019.934977772878483 ] ] ] } },
{ "type": "Feature", "properties": { "Layer": "LAGO Y CONSTRUCCIONES", "PaperSpace": null, "SubClasses": "AcDbEntity:AcDbHatch", "Linetype": null, "EntityHand": "12D3", "Text": "SOLID" }, "geometry": { "type": "MultiLineString", "coordinates": [ [ [ 849575.442840622505173, 1169019.934977772878483 ], [ 849555.177483769948594, 1168992.805180591996759 ] ] ] } },
{ "type": "Feature", "properties": { "Layer": "LAGO Y CONSTRUCCIONES", "PaperSpace": null, "SubClasses": "AcDbEntity:AcDbHatch", "Linetype": null, "EntityHand": "12D3", "Text": "SOLID" }, "geometry": { "type": "MultiLineString", "coordinates": [ [ [ 849555.177483769948594, 1168992.805180591996759 ], [ 849559.704023833968677, 1168989.423955546692014 ] ] ] } },
{ "type": "Feature", "properties": { "Layer": "LAGO Y CONSTRUCCIONES", "PaperSpace": null, "SubClasses": "AcDbEntity:AcDbHatch", "Linetype": null, "EntityHand": "12D3", "Text": "SOLID" }, "geometry": { "type": "MultiLineString", "coordinates": [ [ [ 849559.704023833968677, 1168989.423955546692014 ], [ 849579.96938068640884, 1169016.553752727573738 ] ] ] } },
{ "type": "Feature", "properties": { "Layer": "LAGO Y CONSTRUCCIONES", "PaperSpace": null, "SubClasses": "AcDbEntity:AcDbPolyline", "Linetype": null, "EntityHand": "12EE", "Text": null }, "geometry": { "type": "MultiLineString", "coordinates": [ [ [ 849579.96938068640884, 1169016.553752727573738 ], [ 849575.442840622505173, 1169019.934977772878483 ], [ 849555.177483769948594, 1168992.805180591996759 ], [ 849559.704023833968677, 1168989.423955546692014 ], [ 849579.96938068640884, 1169016.553752727573738 ] ] ] } },
{ "type": "Feature", "properties": { "Layer": "LAGO Y CONSTRUCCIONES", "PaperSpace": null, "SubClasses": "AcDbEntity:AcDbLine", "Linetype": null, "EntityHand": "12FE", "Text": null }, "geometry": { "type": "MultiLineString", "coordinates": [ [ [ 849636.380155683960766, 1168997.838151699863374 ], [ 849632.356700505595654, 1169000.711003777803853 ] ] ] } },
{ "type": "Feature", "properties": { "Layer": "LAGO Y CONSTRUCCIONES", "PaperSpace": null, "SubClasses": "AcDbEntity:AcDbLine", "Linetype": null, "EntityHand": "12FF", "Text": null }, "geometry": { "type": "MultiLineString", "coordinates": [ [ [ 849630.792992800590582, 1169001.961638046894222 ], [ 849624.400644463952631, 1169007.05471316119656 ] ] ] } },
{ "type": "Feature", "properties": { "Layer": "LAGO Y CONSTRUCCIONES", "PaperSpace": null, "SubClasses": "AcDbEntity:AcDbPolyline", "Linetype": null, "EntityHand": "1300", "Text": null }, "geometry": { "type": "MultiLineString", "coordinates": [ [ [ 849630.792992800590582, 1169001.961638046894222 ], [ 849624.400644463952631, 1169007.05471316119656 ], [ 849620.25299456785433, 1169001.848973540356383 ], [ 849626.791896037524566, 1168996.767847446957603 ], [ 849630.792992800590582, 1169001.961638046894222 ] ] ] } },
{ "type": "Feature", "properties": { "Layer": "LAGO Y CONSTRUCCIONES", "PaperSpace": null, "SubClasses": "AcDbEntity:AcDbPolyline", "Linetype": null, "EntityHand": "1301", "Text": null }, "geometry": { "type": "MultiLineString", "coordinates": [ [ [ 849636.380155683960766, 1168997.838151699863374 ], [ 849632.356700505595654, 1169000.711003777803853 ], [ 849628.304916848195717, 1168995.559168611187488 ], [ 849632.263126171776094, 1168992.531398835126311 ], [ 849636.380155683960766, 1168997.838151699863374 ] ] ] } },
{ "type": "Feature", "properties": { "Layer": "LAGO Y CONSTRUCCIONES", "PaperSpace": null, "SubClasses": "AcDbEntity:AcDbHatch", "Linetype": null, "EntityHand": "1302", "Text": "SOLID" }, "geometry": { "type": "MultiLineString", "coordinates": [ [ [ 849630.792992800590582, 1169001.961638046894222 ], [ 849624.400644463952631, 1169007.05471316119656 ] ] ] } },
{ "type": "Feature", "properties": { "Layer": "LAGO Y CONSTRUCCIONES", "PaperSpace": null, "SubClasses": "AcDbEntity:AcDbHatch", "Linetype": null, "EntityHand": "1302", "Text": "SOLID" }, "geometry": { "type": "MultiLineString", "coordinates": [ [ [ 849624.400644463952631, 1169007.05471316119656 ], [ 849620.25299456785433, 1169001.848973540356383 ] ] ] } },
{ "type": "Feature", "properties": { "Layer": "LAGO Y CONSTRUCCIONES", "PaperSpace": null, "SubClasses": "AcDbEntity:AcDbHatch", "Linetype": null, "EntityHand": "1302", "Text": "SOLID" }, "geometry": { "type": "MultiLineString", "coordinates": [ [ [ 849620.25299456785433, 1169001.848973540356383 ], [ 849626.778195657534525, 1168996.786660268204287 ] ] ] } },
{ "type": "Feature", "properties": { "Layer": "LAGO Y CONSTRUCCIONES", "PaperSpace": null, "SubClasses": "AcDbEntity:AcDbHatch", "Linetype": null, "EntityHand": "1302", "Text": "SOLID" }, "geometry": { "type": "MultiLineString", "coordinates": [ [ [ 849626.778195657534525, 1168996.786660268204287 ], [ 849630.792992800590582, 1169001.961638046894222 ] ] ] } },
{ "type": "Feature", "properties": { "Layer": "LAGO Y CONSTRUCCIONES", "PaperSpace": null, "SubClasses": "AcDbEntity:AcDbHatch", "Linetype": null, "EntityHand": "1302", "Text": "SOLID" }, "geometry": { "type": "MultiLineString", "coordinates": [ [ [ 849632.356700505595654, 1169000.711003777803853 ], [ 849628.360062588355504, 1168995.559432808309793 ] ] ] } },
{ "type": "Feature", "properties": { "Layer": "LAGO Y CONSTRUCCIONES", "PaperSpace": null, "SubClasses": "AcDbEntity:AcDbHatch", "Linetype": null, "EntityHand": "1302", "Text": "SOLID" }, "geometry": { "type": "MultiLineString", "coordinates": [ [ [ 849628.360062588355504, 1168995.559432808309793 ], [ 849632.263126171776094, 1168992.531398835126311 ] ] ] } },
{ "type": "Feature", "properties": { "Layer": "LAGO Y CONSTRUCCIONES", "PaperSpace": null, "SubClasses": "AcDbEntity:AcDbHatch", "Linetype": null, "EntityHand": "1302", "Text": "SOLID" }, "geometry": { "type": "MultiLineString", "coordinates": [ [ [ 849632.263126171776094, 1168992.531398835126311 ], [ 849636.380155683960766, 1168997.838151699863374 ] ] ] } },
{ "type": "Feature", "properties": { "Layer": "LAGO Y CONSTRUCCIONES", "PaperSpace": null, "SubClasses": "AcDbEntity:AcDbHatch", "Linetype": null, "EntityHand": "1302", "Text": "SOLID" }, "geometry": { "type": "MultiLineString", "coordinates": [ [ [ 849636.380155683960766, 1168997.838151699863374 ], [ 849632.356700505595654, 1169000.711003777803853 ] ] ] } },
{ "type": "Feature", "properties": { "Layer": "LAGO Y CONSTRUCCIONES", "PaperSpace": null, "SubClasses": "AcDbEntity:AcDbHatch", "Linetype": null, "EntityHand": "1302", "Text": "SOLID" }, "geometry": { "type": "MultiLineString", "coordinates": [ [ [ 849626.739875629195012, 1169009.990695865824819 ], [ 849631.5999120620545, 1169006.130556498188525 ] ] ] } },
{ "type": "Feature", "properties": { "Layer": "LAGO Y CONSTRUCCIONES", "PaperSpace": null, "SubClasses": "AcDbEntity:AcDbHatch", "Linetype": null, "EntityHand": "1302", "Text": "SOLID" }, "geometry": { "type": "MultiLineString", "coordinates": [ [ [ 849631.5999120620545, 1169006.130556498188525 ], [ 849633.903002373757772, 1169009.030219375155866 ] ] ] } },
{ "type": "Feature", "properties": { "Layer": "LAGO Y CONSTRUCCIONES", "PaperSpace": null, "SubClasses": "AcDbEntity:AcDbHatch", "Linetype": null, "EntityHand": "1302", "Text": "SOLID" }, "geometry": { "type": "MultiLineString", "coordinates": [ [ [ 849629.053256071871147, 1169012.894233177183196 ], [ 849633.90886977314949, 1169009.037606614641845 ] ] ] } },
{ "type": "Feature", "properties": { "Layer": "LAGO Y CONSTRUCCIONES", "PaperSpace": null, "SubClasses": "AcDbEntity:AcDbHatch", "Linetype": null, "EntityHand": "1302", "Text": "SOLID" }, "geometry": { "type": "MultiLineString", "coordinates": [ [ [ 849626.739875629195012, 1169009.990695865824819 ], [ 849629.053256071871147, 1169012.894233177183196 ] ] ] } },
{ "type": "Feature", "properties": { "Layer": "LAGO Y CONSTRUCCIONES", "PaperSpace": null, "SubClasses": "AcDbEntity:AcDbPolyline", "Linetype": null, "EntityHand": "1303", "Text": null }, "geometry": { "type": "MultiLineString", "coordinates": [ [ [ 849595.696724417270161, 1169038.469631506130099 ], [ 849591.324284037691541, 1169041.793310394510627 ], [ 849584.979431328945793, 1169033.446387866977602 ], [ 849589.203223627177067, 1169030.235702741192654 ], [ 849595.696724417270161, 1169038.469631506130099 ] ] ] } },
{ "type": "Feature", "properties": { "Layer": "LAGO Y CONSTRUCCIONES", "PaperSpace": null, "SubClasses": "AcDbEntity:AcDbPolyline", "Linetype": null, "EntityHand": "1310", "Text": null }, "geometry": { "type": "MultiLineString", "coordinates": [ [ [ 849372.534597410471179, 1169327.018513813382015 ], [ 849368.391351262573153, 1169330.536556820850819 ], [ 849367.112553572049364, 1169328.816445383708924 ], [ 849371.217814573668875, 1169325.437254256103188 ], [ 849372.534597410471179, 1169327.018513813382015 ] ] ] } },
{ "type": "Feature", "properties": { "Layer": "LAGO Y CONSTRUCCIONES", "PaperSpace": null, "SubClasses": "AcDbEntity:AcDbHatch", "Linetype": null, "EntityHand": "1311", "Text": "SOLID" }, "geometry": { "type": "MultiLineString", "coordinates": [ [ [ 849371.209123804466799, 1169325.473948622355238 ], [ 849372.500887178699486, 1169327.003568709362298 ], [ 849368.407465897966176, 1169330.460460868664086 ], [ 849367.115702523849905, 1169328.930840781657025 ], [ 849371.209123804466799, 1169325.473948622355238 ] ] ] } },
{ "type": "Feature", "properties": { "Layer": "LAGO Y CONSTRUCCIONES", "PaperSpace": null, "SubClasses": "AcDbEntity:AcDbPolyline", "Linetype": null, "EntityHand": "1312", "Text": null }, "geometry": { "type": "MultiLineString", "coordinates": [ [ [ 849399.167902604909614, 1169323.926165162585676 ], [ 849389.007629408151843, 1169332.982008248334751 ], [ 849387.528854474192485, 1169331.353312051855028 ], [ 849386.184536122833379, 1169329.872703924775124 ], [ 849396.281569687067531, 1169320.687821619678289 ], [ 849399.167902604909614, 1169323.926165162585676 ] ] ] } },
{ "type": "Feature", "properties": { "Layer": "LAGO Y CONSTRUCCIONES", "PaperSpace": null, "SubClasses": "AcDbEntity:AcDbHatch", "Linetype": null, "EntityHand": "1313", "Text": "SOLID" }, "geometry": { "type": "MultiLineString", "coordinates": [ [ [ 849396.281569687067531, 1169320.687821619678289 ], [ 849399.167902604909614, 1169323.926165162585676 ], [ 849389.007629408151843, 1169332.982008248334751 ], [ 849387.528854474192485, 1169331.353312051855028 ], [ 849386.184536122833379, 1169329.872703924775124 ], [ 849396.281569687067531, 1169320.687821619678289 ] ], [ [ 849382.899210822070017, 1169332.823111194418743 ], [ 849385.813737192191184, 1169335.878773523494601 ], [ 849381.619110472733155, 1169339.880139182787389 ], [ 849378.702311017899774, 1169336.808684420073405 ], [ 849382.899210822070017, 1169332.823111194418743 ] ] ] } },
{ "type": "Feature", "properties": { "Layer": "LAGO Y CONSTRUCCIONES", "PaperSpace": null, "SubClasses": "AcDbEntity:AcDbHatch", "Linetype": null, "EntityHand": "1322", "Text": "SOLID" }, "geometry": { "type": "MultiLineString", "coordinates": [ [ [ 849675.608468271791935, 1169273.956584644503891 ], [ 849676.936699683894403, 1169275.454647240228951 ], [ 849666.601482851197943, 1169284.618189329048619 ], [ 849665.273251439095475, 1169283.120126733090729 ], [ 849675.608468271791935, 1169273.956584644503891 ] ] ] } },
{ "type": "Feature", "properties": { "Layer": "LAGO Y CONSTRUCCIONES", "PaperSpace": null, "SubClasses": "AcDbEntity:AcDbPolyline", "Linetype": null, "EntityHand": "1323", "Text": null }, "geometry": { "type": "MultiLineString", "coordinates": [ [ [ 849676.958889214554802, 1169275.495291497791186 ], [ 849666.567312480183318, 1169284.695037792669609 ], [ 849665.267631487455219, 1169283.041310581378639 ], [ 849675.525086443056352, 1169273.983377564931288 ], [ 849676.905466848053038, 1169275.542586747556925 ] ] ] } },
{ "type": "Feature", "properties": { "Layer": "LAGO Y CONSTRUCCIONES", "PaperSpace": null, "SubClasses": "AcDbEntity:AcDbPolyline", "Linetype": null, "EntityHand": "1326", "Text": null }, "geometry": { "type": "MultiLineString", "coordinates": [ [ [ 849713.582369097857736, 1169230.337110383901745 ], [ 849705.188953659962863, 1169238.534440214978531 ], [ 849703.761303994338959, 1169236.865594889037311 ], [ 849712.173642182373442, 1169228.915160010801628 ], [ 849713.582369097857736, 1169230.337110383901745 ] ] ] } },
{ "type": "Feature", "properties": { "Layer": "LAGO Y CONSTRUCCIONES", "PaperSpace": null, "SubClasses": "AcDbEntity:AcDbPolyline", "Linetype": null, "EntityHand": "132C", "Text": null }, "geometry": { "type": "MultiLineString", "coordinates": [ [ [ 849864.046122435247526, 1168921.493509961757809 ], [ 849857.954066043836065, 1168928.378701434936374 ], [ 849847.983973642461933, 1168919.380908702500165 ], [ 849854.47323470050469, 1168912.719017121708021 ], [ 849864.046122435247526, 1168921.493509961757809 ] ] ] } },
{ "type": "Feature", "properties": { "Layer": "LAGO Y CONSTRUCCIONES", "PaperSpace": null, "SubClasses": "AcDbEntity:AcDbPolyline", "Linetype": null, "EntityHand": "132D", "Text": null }, "geometry": { "type": "MultiLineString", "coordinates": [ [ [ 849846.413624494569376, 1168957.815830331295729 ], [ 849840.422677767812274, 1168965.72681382810697 ], [ 849853.132805929053575, 1168976.340940497349948 ], [ 849862.366114023257978, 1168964.156283296644688 ], [ 849856.917992371832952, 1168959.499883625190705 ] ] ] } },
{ "type": "Feature", "properties": { "Layer": "LAGO Y CONSTRUCCIONES", "PaperSpace": null, "SubClasses": "AcDbEntity:AcDbHatch", "Linetype": null, "EntityHand": "132E", "Text": "SOLID" }, "geometry": { "type": "MultiLineString", "coordinates": [ [ [ 849849.58804189611692, 1168953.576529484940693 ], [ 849862.370341407484375, 1168964.20127990632318 ], [ 849853.144816139247268, 1168976.296078233513981 ], [ 849840.362516627879813, 1168965.671327811898664 ], [ 849849.58804189611692, 1168953.576529484940693 ] ] ] } },
{ "type": "Feature", "properties": { "Layer": "LAGO Y CONSTRUCCIONES", "PaperSpace": null, "SubClasses": "AcDbEntity:AcDbPolyline", "Linetype": null, "EntityHand": "1337", "Text": null }, "geometry": { "type": "MultiLineString", "coordinates": [ [ [ 850103.331093045184389, 1168758.851347253192216 ], [ 850105.311781513504684, 1168756.385508604347706 ], [ 850128.145318193477578, 1168776.721808848436922 ], [ 850125.893812522757798, 1168779.204493555240333 ], [ 850103.331093045184389, 1168758.851347253192216 ] ] ] } },
{ "type": "Feature", "properties": { "Layer": "LAGO Y CONSTRUCCIONES", "PaperSpace": null, "SubClasses": "AcDbEntity:AcDbPolyline", "Linetype": null, "EntityHand": "1338", "Text": null }, "geometry": { "type": "MultiLineString", "coordinates": [ [ [ 850128.145318193477578, 1168776.721808848436922 ], [ 850125.893812522757798, 1168779.204493555240333 ], [ 850103.331093045184389, 1168758.851347253192216 ], [ 850105.311781513504684, 1168756.385508604347706 ], [ 850128.145318193477578, 1168776.721808848436922 ] ] ] } },
{ "type": "Feature", "properties": { "Layer": "LAGO Y CONSTRUCCIONES", "PaperSpace": null, "SubClasses": "AcDbEntity:AcDbLine", "Linetype": null, "EntityHand": "1339", "Text": null }, "geometry": { "type": "MultiLineString", "coordinates": [ [ [ 850153.69963026267942, 1168749.55929826782085 ], [ 850150.552168859285302, 1168746.773492472013459 ] ] ] } },
{ "type": "Feature", "properties": { "Layer": "LAGO Y CONSTRUCCIONES", "PaperSpace": null, "SubClasses": "AcDbEntity:AcDbLine", "Linetype": null, "EntityHand": "133A", "Text": null }, "geometry": { "type": "MultiLineString", "coordinates": [ [ [ 850150.552168859285302, 1168746.773492472013459 ], [ 850153.338745115557685, 1168743.625160586321726 ] ] ] } },
{ "type": "Feature", "properties": { "Layer": "LAGO Y CONSTRUCCIONES", "PaperSpace": null, "SubClasses": "AcDbEntity:AcDbPolyline", "Linetype": null, "EntityHand": "133B", "Text": null }, "geometry": { "type": "MultiLineString", "coordinates": [ [ [ 850168.40389665402472, 1168740.055687529267743 ], [ 850099.385925444657914, 1168816.001400611130521 ], [ 850074.566119932336733, 1168843.905816767597571 ], [ 850037.670780427870341, 1168885.677843733690679 ], [ 849998.604829849558882, 1168930.196078084176406 ], [ 849929.91612436552532, 1169007.37858831230551 ], [ 849894.484734344179742, 1169046.709408825961873 ], [ 849859.380041557480581, 1169084.996923477388918 ], [ 849814.772462740424089, 1169133.989484740886837 ], [ 849759.144918092875741, 1169195.419636867009103 ], [ 849707.104095982387662, 1169251.8254197856877 ], [ 849641.388506321934983, 1169315.511415082961321 ], [ 849588.629914571531117, 1169366.678769206162542 ], [ 849486.732113158330321, 1169465.687001770595089 ], [ 849441.189620479359291, 1169509.99860358145088 ], [ 849330.747239928692579, 1169617.752567924559116 ], [ 849306.570752641186118, 1169640.712540716864169 ], [ 849277.231145201600157, 1169667.110951651353389 ], [ 849276.010449069668539, 1169672.726512305438519 ] ] ] } },
{ "type": "Feature", "properties": { "Layer": "LAGO Y CONSTRUCCIONES", "PaperSpace": null, "SubClasses": "AcDbEntity:AcDbHatch", "Linetype": null, "EntityHand": "1344", "Text": "SOLID" }, "geometry": { "type": "MultiLineString", "coordinates": [ [ [ 849913.608996273484081, 1168724.282084074569866 ], [ 849926.640365681378171, 1168727.995984009699896 ], [ 849929.42551731527783, 1168720.822894546901807 ], [ 849905.536259949207306, 1168711.547225460410118 ], [ 849902.751108315307647, 1168718.720314923208207 ], [ 849897.95968543656636, 1168730.88018338335678 ], [ 849909.504100657533854, 1168735.214766419259831 ], [ 849913.608996273484081, 1168724.282084074569866 ] ] ] } },
{ "type": "Feature", "properties": { "Layer": "LAGO Y CONSTRUCCIONES", "PaperSpace": null, "SubClasses": "AcDbEntity:AcDbHatch", "Linetype": null, "EntityHand": "1345", "Text": "SOLID" }, "geometry": { "type": "MultiLineString", "coordinates": [ [ [ 849309.417317878222093, 1169011.484506878303364 ], [ 849312.222156050964259, 1169009.384845503373072 ], [ 849316.64201379660517, 1169015.289124103495851 ], [ 849313.837175623863004, 1169017.388785478193313 ], [ 849309.417317878222093, 1169011.484506878303364 ] ] ] } },
{ "type": "Feature", "properties": { "Layer": "LAGO Y CONSTRUCCIONES", "PaperSpace": null, "SubClasses": "AcDbEntity:AcDbHatch", "Linetype": null, "EntityHand": "1346", "Text": "SOLID" }, "geometry": { "type": "MultiLineString", "coordinates": [ [ [ 849136.081215872196481, 1169384.560979672009125 ], [ 849132.603135202778503, 1169386.79532473674044 ], [ 849129.562140043824911, 1169382.910542163765058 ], [ 849133.122272751759738, 1169380.623486254829913 ], [ 849136.081215872196481, 1169384.560979672009125 ] ], [ [ 849132.346261964412406, 1169402.395619785878807 ], [ 849130.210505537455902, 1169403.700094474013895 ], [ 849127.549377173767425, 1169399.343151363078505 ], [ 849129.698586097918451, 1169398.030460175126791 ], [ 849132.346261964412406, 1169402.395619785878807 ] ] ] } },
{ "type": "Feature", "properties": { "Layer": "LAGO Y CONSTRUCCIONES", "PaperSpace": null, "SubClasses": "AcDbEntity:AcDbHatch", "Linetype": null, "EntityHand": "1347", "Text": "SOLID" }, "geometry": { "type": "MultiLineString", "coordinates": [ [ [ 849138.720617840299383, 1169388.806288388790563 ], [ 849143.213358581066132, 1169396.08566681900993 ], [ 849137.931796564836986, 1169399.34538041590713 ], [ 849133.472686849185266, 1169392.045245340326801 ], [ 849138.720617840299383, 1169388.806288388790563 ] ] ] } },
{ "type": "Feature", "properties": { "Layer": "LAGO Y CONSTRUCCIONES", "PaperSpace": null, "SubClasses": "AcDbEntity:AcDbHatch", "Linetype": null, "EntityHand": "1348", "Text": "SOLID" }, "geometry": { "type": "MultiLineString", "coordinates": [ [ [ 849629.053256071871147, 1169012.894233177183196 ], [ 849626.739875629195012, 1169009.990695865824819 ], [ 849631.5999120620545, 1169006.130556498188525 ], [ 849633.903002373757772, 1169009.030219375155866 ], [ 849629.053256071871147, 1169012.894233177183196 ] ] ] } },
{ "type": "Feature", "properties": { "Layer": "LAGO Y CONSTRUCCIONES", "PaperSpace": null, "SubClasses": "AcDbEntity:AcDbHatch", "Linetype": null, "EntityHand": "1349", "Text": "SOLID" }, "geometry": { "type": "MultiLineString", "coordinates": [ [ [ 849281.112721276353113, 1169591.085969837382436 ], [ 849285.078612920013256, 1169595.152938943589106 ], [ 849282.104082196252421, 1169598.08912864048034 ], [ 849278.138190552708693, 1169594.022159534273669 ], [ 849281.112721276353113, 1169591.085969837382436 ] ] ] } },
{ "type": "Feature", "properties": { "Layer": "LAGO Y CONSTRUCCIONES", "PaperSpace": null, "SubClasses": "AcDbEntity:AcDbHatch", "Linetype": null, "EntityHand": "134A", "Text": "SOLID" }, "geometry": { "type": "MultiLineString", "coordinates": [ [ [ 849885.385853193583898, 1168989.634019405348226 ], [ 849885.688662694767118, 1168989.818223866634071 ], [ 849885.977885113563389, 1168990.023102537728846 ], [ 849886.252111387439072, 1168990.247657271102071 ], [ 849886.51000551355537, 1168990.490794057957828 ], [ 849886.75031105754897, 1168990.751328360987827 ], [ 849886.971857275115326, 1168991.027990882750601 ], [ 849887.173564815311693, 1168991.319433751516044 ], [ 849887.354450979270041, 1168991.624237086623907 ], [ 849887.513634507777169, 1168991.940915917279199 ], [ 849887.650339874671772, 1168992.267927415668964 ], [ 849887.76390106510371, 1168992.603678415063769 ], [ 849887.853764820494689, 1168992.946533169830218 ], [ 849887.919493333552964, 1168993.294821326620877 ], [ 849887.960766381584108, 1168993.646846059942618 ], [ 849887.977382886456326, 1168994.000892341136932 ], [ 849887.969261894235387, 1168994.355235292343423 ], [ 849887.936442969599739, 1168994.708148590056226 ], [ 849887.879086003056727, 1168995.057912876131013 ], [ 849887.79747043189127, 1168995.402824134333059 ], [ 849887.691993879154325, 1168995.74120199168101 ], [ 849887.563170215813443, 1168996.071397905005142 ], [ 849887.411627057823353, 1168996.391803193371743 ], [ 849887.238102708361112, 1168996.700856873998418 ], [ 849887.043442560476251, 1168996.997053268831223 ], [ 849886.828594978898764, 1168997.278949338709936 ], [ 849886.594606679398566, 1168997.545171714155003 ], [ 849886.342617629445158, 1168997.794423386687413 ], [ 849886.073855494498275, 1168998.025490026921034 ], [ 849885.789629656588659, 1168998.237245901953429 ], [ 849885.491324835340492, 1168998.428659357829019 ], [ 849885.18039434205275, 1168998.598797847749665 ], [ 849884.85835299862083, 1168998.746832474134862 ], [ 849884.526769758202136, 1168998.872042027069256 ], [ 849884.18726006092038, 1168998.973816498182714 ], [ 849883.84147796407342, 1168999.051660052733496 ], [ 849883.491108083166182, 1168999.105193444294855 ], [ 849883.137857384979725, 1168999.134155863896012 ], [ 849882.783446871559136, 1168999.138406209414825 ], [ 849882.429603195167147, 1168999.117923773592338 ], [ 849882.078050246695057, 1168999.072808345081285 ], [ 849881.730500756762922, 1168999.003279721131548 ], [ 849881.388647951534949, 1168998.909676638664678 ], [ 849881.054157303529792, 1168998.792455122573301 ], [ 849880.728658417589031, 1168998.652186263818294 ], [ 849880.413737091468647, 1168998.48955343849957 ], [ 849880.110927590285428, 1168998.305348977446556 ], [ 849879.821705171489157, 1168998.10047030611895 ], [ 849879.547478897613473, 1168997.875915572978556 ], [ 849879.289584771497175, 1168997.632778785889968 ], [ 849879.049279227503575, 1168997.3722444830928 ], [ 849878.827733009937219, 1168997.095581961330026 ], [ 849878.626025469740853, 1168996.804139092564583 ], [ 849878.445139305782504, 1168996.49933575745672 ], [ 849878.285955777275376, 1168996.182656926801428 ], [ 849878.149250410380773, 1168995.855645428411663 ], [ 849878.035689219948836, 1168995.519894429016858 ], [ 849877.945825464557856, 1168995.177039674250409 ], [ 849877.880096951499581, 1168994.82875151745975 ], [ 849877.838823903468437, 1168994.476726783905178 ], [ 849877.82220739859622, 1168994.122680502710864 ], [ 849877.830328390817158, 1168993.768337551737204 ], [ 849877.863147315452807, 1168993.415424254024401 ], [ 849877.920504281995818, 1168993.065659967949614 ], [ 849878.002119853161275, 1168992.720748709747568 ], [ 849878.107596405898221, 1168992.382370852399617 ], [ 849878.236420069239102, 1168992.052174939075485 ], [ 849878.387963227229193, 1168991.731769650708884 ], [ 849878.561487576807849, 1168991.422715969849378 ], [ 849878.75614772469271, 1168991.126519575016573 ], [ 849878.970995306270197, 1168990.844623505370691 ], [ 849879.204983605653979, 1168990.578401129925624 ], [ 849879.456972655607387, 1168990.329149457393214 ], [ 849879.72573479055427, 1168990.098082816926762 ], [ 849880.009960628463887, 1168989.886326942127198 ], [ 849880.308265449712053, 1168989.694913486251608 ], [ 849880.619195942999795, 1168989.524774996330962 ], [ 849880.941237286431715, 1168989.376740369945765 ], [ 849881.27282052685041, 1168989.251530817011371 ], [ 849881.612330224132165, 1168989.149756345665082 ], [ 849881.958112320979126, 1168989.071912791347131 ], [ 849882.308482201886363, 1168989.018379399785772 ], [ 849882.66173290007282, 1168988.989416980184615 ], [ 849883.01614341349341, 1168988.985166634665802 ], [ 849883.369987089885399, 1168989.005649070255458 ], [ 849883.721540038357489, 1168989.050764498999342 ], [ 849884.069089528289624, 1168989.120293122949079 ], [ 849884.410942333517596, 1168989.213896205183119 ], [ 849884.745432981522754, 1168989.331117721507326 ], [ 849885.070931867463514, 1168989.471386580262333 ], [ 849885.385853193583898, 1168989.634019405348226 ] ] ] } },
{ "type": "Feature", "properties": { "Layer": "LAGO Y CONSTRUCCIONES", "PaperSpace": null, "SubClasses": "AcDbEntity:AcDbHatch", "Linetype": null, "EntityHand": "134B", "Text": "SOLID" }, "geometry": { "type": "MultiLineString", "coordinates": [ [ [ 849854.385280015878379, 1168912.753652907907963 ], [ 849863.989141075871885, 1168921.573898192727938 ], [ 849857.891479119542055, 1168928.177808432141319 ], [ 849848.287618059548549, 1168919.357563147321343 ], [ 849854.385280015878379, 1168912.753652907907963 ] ] ] } },
{ "type": "Feature", "properties": { "Layer": "LAGO Y CONSTRUCCIONES", "PaperSpace": null, "SubClasses": "AcDbEntity:AcDbHatch", "Linetype": null, "EntityHand": "134C", "Text": "SOLID" }, "geometry": { "type": "MultiLineString", "coordinates": [ [ [ 849850.504921175306663, 1168904.458776611834764 ], [ 849852.840170272742398, 1168906.586356756743044 ], [ 849848.053491086233407, 1168911.840254374081269 ], [ 849845.704650291823782, 1168909.700291214743629 ], [ 849850.504921175306663, 1168904.458776611834764 ] ] ] } },
{ "type": "Feature", "properties": { "Layer": "LAGO Y CONSTRUCCIONES", "PaperSpace": null, "SubClasses": "AcDbEntity:AcDbHatch", "Linetype": null, "EntityHand": "134D", "Text": "SOLID" }, "geometry": { "type": "MultiLineString", "coordinates": [ [ [ 849840.524691680911928, 1168969.871582551626489 ], [ 849842.219328794511966, 1168971.427556676557288 ], [ 849840.662143127527088, 1168973.123513300670311 ], [ 849838.96750601392705, 1168971.567539175972342 ], [ 849840.524691680911928, 1168969.871582551626489 ] ] ] } },
{ "type": "Feature", "properties": { "Layer": "LAGO Y CONSTRUCCIONES", "PaperSpace": null, "SubClasses": "AcDbEntity:AcDbHatch", "Linetype": null, "EntityHand": "134E", "Text": "SOLID" }, "geometry": { "type": "MultiLineString", "coordinates": [ [ [ 849953.008473882917315, 1168830.803818980231881 ], [ 849949.839613894349895, 1168827.952605261933059 ], [ 849953.619097365648486, 1168823.752059412421659 ], [ 849956.78795735433232, 1168826.603273130487651 ], [ 849953.008473882917315, 1168830.803818980231881 ] ] ] } },
{ "type": "Feature", "properties": { "Layer": "LAGO Y CONSTRUCCIONES", "PaperSpace": null, "SubClasses": "AcDbEntity:AcDbHatch", "Linetype": null, "EntityHand": "134F", "Text": "SOLID" }, "geometry": { "type": "MultiLineString", "coordinates": [ [ [ 849878.803521448047832, 1169036.801393987610936 ], [ 849880.281057979213074, 1169038.304161993553862 ], [ 849877.274900449090637, 1169041.25817828765139 ], [ 849875.797788087860681, 1169039.754993468988687 ], [ 849878.803521448047832, 1169036.801393987610936 ] ] ] } },
{ "type": "Feature", "properties": { "Layer": "LAGO Y CONSTRUCCIONES", "PaperSpace": null, "SubClasses": "AcDbEntity:AcDbHatch", "Linetype": null, "EntityHand": "1350", "Text": "SOLID" }, "geometry": { "type": "MultiLineString", "coordinates": [ [ [ 849705.221898404182866, 1169238.388216708321124 ], [ 849703.830914050340652, 1169236.948233113856986 ], [ 849712.160059191985056, 1169228.902509109349921 ], [ 849713.55104354582727, 1169230.34249270404689 ], [ 849705.221898404182866, 1169238.388216708321124 ] ] ] } },
{ "type": "Feature", "properties": { "Layer": "LAGO Y CONSTRUCCIONES", "PaperSpace": null, "SubClasses": "AcDbEntity:AcDbHatch", "Linetype": null, "EntityHand": "1351", "Text": "SOLID" }, "geometry": { "type": "MultiLineString", "coordinates": [ [ [ 849288.919992386829108, 1169597.438908864278346 ], [ 849294.570020748185925, 1169603.328665224835277 ], [ 849291.030275477329269, 1169606.724333898862824 ], [ 849285.380247115972452, 1169600.834577538538724 ], [ 849288.919992386829108, 1169597.438908864278346 ] ] ] } },
{ "type": "Feature", "properties": { "Layer": "LAGO Y CONSTRUCCIONES", "PaperSpace": null, "SubClasses": "AcDbEntity:AcDbHatch", "Linetype": null, "EntityHand": "1352", "Text": "SOLID" }, "geometry": { "type": "MultiLineString", "coordinates": [ [ [ 849270.71041978627909, 1169588.05209822836332 ], [ 849272.169513089116663, 1169586.681172643788159 ], [ 849274.616724156308919, 1169589.285770090995356 ], [ 849273.157630853471346, 1169590.656695675803348 ], [ 849270.71041978627909, 1169588.05209822836332 ] ] ] } },
{ "type": "Feature", "properties": { "Layer": "LAGO Y CONSTRUCCIONES", "PaperSpace": null, "SubClasses": "AcDbEntity:AcDbHatch", "Linetype": null, "EntityHand": "1353", "Text": "SOLID" }, "geometry": { "type": "MultiLineString", "coordinates": [ [ [ 849638.635346321505494, 1169007.593406999250874 ], [ 849644.357051909551956, 1169010.761903619393706 ], [ 849666.295180473127402, 1169037.65885543031618 ], [ 849677.779541275347583, 1169061.104588081594557 ], [ 849676.481658870936371, 1169068.751160653075203 ], [ 849658.999725040630437, 1169083.675898784538731 ], [ 849642.754144181846641, 1169087.562403195537627 ], [ 849623.880247214692645, 1169051.316756739048287 ], [ 849615.767197764595039, 1169042.247689264826477 ], [ 849611.033935299725272, 1169034.811377126025036 ], [ 849638.635346321505494, 1169007.593406999250874 ] ] ] } },
{ "type": "Feature", "properties": { "Layer": "LAGO Y CONSTRUCCIONES", "PaperSpace": null, "SubClasses": "AcDbEntity:AcDbHatch", "Linetype": null, "EntityHand": "1354", "Text": "SOLID" }, "geometry": { "type": "MultiLineString", "coordinates": [ [ [ 849131.527814732282422, 1169411.23697217553854 ], [ 849139.221455775317736, 1169422.284050289308652 ], [ 849139.066752953105606, 1169422.408992431126535 ], [ 849138.224227628903463, 1169422.75959229725413 ], [ 849108.765581481973641, 1169432.41781054995954 ], [ 849085.190236081136391, 1169440.086001259973273 ], [ 849073.347984340041876, 1169443.94155959575437 ], [ 849065.678471053717658, 1169446.508861823007464 ], [ 849051.557105672429316, 1169453.79323206259869 ], [ 849043.919173421571031, 1169459.890944900223985 ], [ 849037.134783217567019, 1169465.380776944337413 ], [ 849029.464057239354588, 1169471.348571438109502 ], [ 849027.397174484096467, 1169472.855900701135397 ], [ 849025.882685333839618, 1169473.707518861163408 ], [ 849023.723166070063598, 1169474.492161076050252 ], [ 849022.622422303305939, 1169474.73204832454212 ], [ 849021.870681100524962, 1169474.774264628067613 ], [ 849021.139120035106316, 1169474.642529383301735 ], [ 849019.965419871732593, 1169474.148363752523437 ], [ 849018.141572706867009, 1169472.946711986791342 ], [ 849014.665506610530429, 1169469.813699677353725 ], [ 849011.638558662496507, 1169466.584752273978665 ], [ 849010.861986452946439, 1169465.632996493251994 ], [ 849010.149057990522124, 1169464.632678308757022 ], [ 849009.367436536238529, 1169463.251588406972587 ], [ 849008.798219474381767, 1169461.788434833288193 ], [ 849008.493056629784405, 1169459.950194629607722 ], [ 849008.679578768555075, 1169457.884148300625384 ], [ 849009.369812822435051, 1169455.619869203539565 ], [ 849010.428835019934922, 1169453.521381858736277 ], [ 849012.710699214250781, 1169450.094286776380613 ], [ 849015.18939034990035, 1169446.873295821016654 ], [ 849020.41861299413722, 1169440.68521732557565 ], [ 849022.737496268586256, 1169438.142547420458868 ], [ 849030.099686231580563, 1169430.514524938771501 ], [ 849041.28406221489422, 1169418.940113886492327 ], [ 849059.584043117822148, 1169399.945906677516177 ], [ 849072.678315785247833, 1169384.98079235618934 ], [ 849079.977001385763288, 1169376.874078493798152 ], [ 849082.161550689837895, 1169374.523161276709288 ], [ 849083.508270790218376, 1169373.183820151491091 ], [ 849086.044313030084595, 1169370.866637969389558 ], [ 849087.907042956678197, 1169369.293930964311585 ], [ 849090.695025502122007, 1169367.128139401087537 ], [ 849093.4955711401999, 1169365.195365524152294 ], [ 849095.996074976283126, 1169363.774692301172763 ], [ 849098.116304125869647, 1169362.804953383281827 ], [ 849099.936129344394431, 1169362.140775574371219 ], [ 849100.288340494036674, 1169362.029020791174844 ], [ 849101.01353059662506, 1169361.82493332028389 ], [ 849101.087398645700887, 1169361.825905181001872 ], [ 849109.587173676700331, 1169376.115289065055549 ], [ 849118.442949717747979, 1169390.733495595632121 ], [ 849126.849014363018796, 1169404.046489929081872 ], [ 849131.527814732282422, 1169411.23697217553854 ] ] ] } },
{ "type": "Feature", "properties": { "Layer": "LAGO Y CONSTRUCCIONES", "PaperSpace": null, "SubClasses": "AcDbEntity:AcDbHatch", "Linetype": null, "EntityHand": "1355", "Text": "SOLID" }, "geometry": { "type": "MultiLineString", "coordinates": [ [ [ 850153.338745115557685, 1168743.625160586321726 ], [ 850156.486206518951803, 1168746.410966382129118 ], [ 850153.69963026267942, 1168749.55929826782085 ], [ 850150.552168859285302, 1168746.773492472013459 ], [ 850153.338745115557685, 1168743.625160586321726 ] ] ] } },
{ "type": "Feature", "properties": { "Layer": "LAGO Y CONSTRUCCIONES", "PaperSpace": null, "SubClasses": "AcDbEntity:AcDbHatch", "Linetype": null, "EntityHand": "1356", "Text": "SOLID" }, "geometry": { "type": "MultiLineString", "coordinates": [ [ [ 849152.871250898460858, 1169682.39641615212895 ], [ 849176.141990092000924, 1169673.614354016259313 ], [ 849194.793357207323425, 1169669.285402654670179 ], [ 849207.456251154770143, 1169656.960352207301185 ], [ 849214.631286417017691, 1169651.857200472149998 ], [ 849266.262364341877401, 1169600.049959413707256 ], [ 849282.815308581804857, 1169601.685812535928562 ], [ 849286.816087623592466, 1169609.907345037441701 ], [ 849284.56531468196772, 1169619.754047730471939 ], [ 849281.844533049501479, 1169624.214174550725147 ], [ 849275.870723189786077, 1169627.158300251467153 ], [ 849243.827557822572999, 1169655.241332705132663 ], [ 849240.161997935152613, 1169660.995338374050334 ], [ 849236.49799397867173, 1169672.743700013728812 ], [ 849234.516035532462411, 1169677.941624350612983 ], [ 849212.252453705528751, 1169698.530122848460451 ], [ 849197.975310829817317, 1169719.456971237435937 ], [ 849185.303458985756151, 1169741.483891069423407 ], [ 849162.205824665492401, 1169746.034875583369285 ], [ 849147.474045661045238, 1169738.015924483770505 ], [ 849142.146830951329321, 1169721.398070705821738 ], [ 849152.871250898460858, 1169682.39641615212895 ] ] ] } },
{ "type": "Feature", "properties": { "Layer": "LAGO Y CONSTRUCCIONES", "PaperSpace": null, "SubClasses": "AcDbEntity:AcDbHatch", "Linetype": null, "EntityHand": "1357", "Text": "SOLID" }, "geometry": { "type": "MultiLineString", "coordinates": [ [ [ 849561.566873106756248, 1169190.969052505213767 ], [ 849564.481399476760998, 1169194.024714834289625 ], [ 849560.286772757419385, 1169198.026080493582413 ], [ 849557.369973302586004, 1169194.954625730868429 ], [ 849561.566873106756248, 1169190.969052505213767 ] ] ] } },
{ "type": "Feature", "properties": { "Layer": "LAGO Y CONSTRUCCIONES", "PaperSpace": null, "SubClasses": "AcDbEntity:AcDbHatch", "Linetype": null, "EntityHand": "1358", "Text": "SOLID" }, "geometry": { "type": "MultiLineString", "coordinates": [ [ [ 850123.242781309294514, 1168782.186662012711167 ], [ 850121.141692861448973, 1168784.25902585615404 ], [ 850098.552950650104322, 1168763.957690270151943 ], [ 850102.985611317562871, 1168759.163569531403482 ], [ 850114.156451021437533, 1168769.248342536156997 ], [ 850111.759503858280368, 1168772.065442369319499 ], [ 850123.242781309294514, 1168782.186662012711167 ] ], [ [ 850128.145318193477578, 1168776.721808848436922 ], [ 850125.893812522757798, 1168779.204493555240333 ], [ 850103.331093045184389, 1168758.851347253192216 ], [ 850105.311781513504684, 1168756.385508604347706 ], [ 850128.145318193477578, 1168776.721808848436922 ] ] ] } },
{ "type": "Feature", "properties": { "Layer": "LAGO Y CONSTRUCCIONES", "PaperSpace": null, "SubClasses": "AcDbEntity:AcDbLine", "Linetype": null, "EntityHand": "1C4E", "Text": null }, "geometry": { "type": "MultiLineString", "coordinates": [ [ [ 849620.25299456785433, 1169001.848973540356383 ], [ 849624.400644463952631, 1169007.05471316119656 ] ] ] } },
{ "type": "Feature", "properties": { "Layer": "LAGO Y CONSTRUCCIONES", "PaperSpace": null, "SubClasses": "AcDbEntity:AcDbLine", "Linetype": null, "EntityHand": "1C4F", "Text": null }, "geometry": { "type": "MultiLineString", "coordinates": [ [ [ 849913.608996273484081, 1168724.282084074569866 ], [ 849926.640365681378171, 1168727.995984009699896 ] ] ] } },
{ "type": "Feature", "properties": { "Layer": "LAGO Y CONSTRUCCIONES", "PaperSpace": null, "SubClasses": "AcDbEntity:AcDbPolyline", "Linetype": null, "EntityHand": "1C50", "Text": null }, "geometry": { "type": "MultiLineString", "coordinates": [ [ [ 849088.41527004702948, 1169363.805166056379676 ], [ 849098.898381212144159, 1169358.233095580711961 ], [ 849103.177993340766989, 1169357.305514531210065 ], [ 849129.148787664016709, 1169403.555456841597334 ], [ 849145.985064850654453, 1169424.253560370532796 ], [ 849110.019277027575299, 1169436.220666219247505 ], [ 849069.37601931404788, 1169449.496373010333627 ], [ 849050.615196115104482, 1169459.665889936499298 ], [ 849029.345996769610792, 1169476.417965698288754 ], [ 849021.269190723425709, 1169479.221597637748346 ], [ 849011.834490585839376, 1169472.726065449649468 ], [ 849004.530095644877292, 1169462.735127122141421 ], [ 849006.689992175321095, 1169451.784674033522606 ], [ 849019.726819160510786, 1169435.49604607000947 ], [ 849055.321385229122825, 1169398.587424611439928 ], [ 849079.34495287691243, 1169371.665410021087155 ], [ 849088.41527004702948, 1169363.805166056379676 ] ] ] } },
{ "type": "Feature", "properties": { "Layer": "LAGO Y CONSTRUCCIONES", "PaperSpace": null, "SubClasses": "AcDbEntity:AcDbLine", "Linetype": null, "EntityHand": "1C51", "Text": null }, "geometry": { "type": "MultiLineString", "coordinates": [ [ [ 849636.380155683960766, 1168997.838151699863374 ], [ 849632.263126171776094, 1168992.531398835126311 ] ] ] } },
{ "type": "Feature", "properties": { "Layer": "LAGO Y CONSTRUCCIONES", "PaperSpace": null, "SubClasses": "AcDbEntity:AcDbPolyline", "Linetype": null, "EntityHand": "1C52", "Text": null }, "geometry": { "type": "MultiLineString", "coordinates": [ [ [ 849133.122272751759738, 1169380.623486254829913 ], [ 849136.081215872196481, 1169384.560979672009125 ], [ 849132.603135202778503, 1169386.79532473674044 ], [ 849129.562140043824911, 1169382.910542163765058 ], [ 849133.122272751759738, 1169380.623486254829913 ] ] ] } },
{ "type": "Feature", "properties": { "Layer": "LAGO Y CONSTRUCCIONES", "PaperSpace": null, "SubClasses": "AcDbEntity:AcDbPolyline", "Linetype": null, "EntityHand": "1C53", "Text": null }, "geometry": { "type": "MultiLineString", "coordinates": [ [ [ 849138.720617840299383, 1169388.806288388790563 ], [ 849143.213358581066132, 1169396.08566681900993 ], [ 849137.931796564836986, 1169399.34538041590713 ], [ 849133.472686849185266, 1169392.045245340326801 ], [ 849138.720617840299383, 1169388.806288388790563 ] ] ] } },
{ "type": "Feature", "properties": { "Layer": "LAGO Y CONSTRUCCIONES", "PaperSpace": null, "SubClasses": "AcDbEntity:AcDbPolyline", "Linetype": null, "EntityHand": "1C54", "Text": null }, "geometry": { "type": "MultiLineString", "coordinates": [ [ [ 849127.549377173767425, 1169399.343151363078505 ], [ 849130.210505537455902, 1169403.700094474013895 ], [ 849132.346261964412406, 1169402.395619785878807 ], [ 849129.698586097918451, 1169398.030460175126791 ], [ 849127.549377173767425, 1169399.343151363078505 ] ] ] } },
{ "type": "Feature", "properties": { "Layer": "LAGO Y CONSTRUCCIONES", "PaperSpace": null, "SubClasses": "AcDbEntity:AcDbPolyline", "Linetype": null, "EntityHand": "1C56", "Text": null }, "geometry": { "type": "MultiLineString", "coordinates": [ [ [ 850111.759503858280368, 1168772.065442369319499 ], [ 850123.242781309294514, 1168782.186662012711167 ], [ 850121.141692861448973, 1168784.25902585615404 ], [ 850098.552950650104322, 1168763.957690270151943 ] ] ] } },
{ "type": "Feature", "properties": { "Layer": "LAGO Y CONSTRUCCIONES", "PaperSpace": null, "SubClasses": "AcDbEntity:AcDbCircle", "Linetype": null, "EntityHand": "1C57", "Text": null }, "geometry": { "type": "MultiLineString", "coordinates": [ [ [ 849885.385853193583898, 1168989.634019405348226 ], [ 849885.070931867463514, 1168989.471386580262333 ], [ 849884.745432981522754, 1168989.331117721507326 ], [ 849884.410942333517596, 1168989.213896205183119 ], [ 849884.069089528289624, 1168989.120293122949079 ], [ 849883.721540038357489, 1168989.050764498999342 ], [ 849883.369987089885399, 1168989.005649070255458 ], [ 849883.01614341349341, 1168988.985166634665802 ], [ 849882.66173290007282, 1168988.989416980184615 ], [ 849882.308482201886363, 1168989.018379399785772 ], [ 849881.958112320979126, 1168989.071912791347131 ], [ 849881.612330224132165, 1168989.149756345665082 ], [ 849881.27282052685041, 1168989.251530817011371 ], [ 849880.941237286431715, 1168989.376740369945765 ], [ 849880.619195942999795, 1168989.524774996330962 ], [ 849880.308265449712053, 1168989.694913486251608 ], [ 849880.009960628463887, 1168989.886326942127198 ], [ 849879.72573479055427, 1168990.098082816926762 ], [ 849879.456972655607387, 1168990.329149457393214 ], [ 849879.204983605653979, 1168990.578401129925624 ], [ 849878.970995306270197, 1168990.844623505370691 ], [ 849878.75614772469271, 1168991.126519575016573 ], [ 849878.561487576807849, 1168991.422715969849378 ], [ 849878.387963227229193, 1168991.731769650708884 ], [ 849878.236420069239102, 1168992.052174939075485 ], [ 849878.107596405898221, 1168992.382370852399617 ], [ 849878.002119853161275, 1168992.720748709747568 ], [ 849877.920504281995818, 1168993.065659967949614 ], [ 849877.863147315452807, 1168993.415424254024401 ], [ 849877.830328390817158, 1168993.768337551737204 ], [ 849877.82220739859622, 1168994.122680502710864 ], [ 849877.838823903468437, 1168994.476726783905178 ], [ 849877.880096951499581, 1168994.82875151745975 ], [ 849877.945825464557856, 1168995.177039674250409 ], [ 849878.035689219948836, 1168995.519894429016858 ], [ 849878.149250410380773, 1168995.855645428411663 ], [ 849878.285955777275376, 1168996.182656926801428 ], [ 849878.445139305782504, 1168996.49933575745672 ], [ 849878.626025469740853, 1168996.804139092564583 ], [ 849878.827733009937219, 1168997.095581961330026 ], [ 849879.049279227503575, 1168997.3722444830928 ], [ 849879.289584771497175, 1168997.632778785889968 ], [ 849879.547478897613473, 1168997.875915572978556 ], [ 849879.821705171489157, 1168998.10047030611895 ], [ 849880.110927590285428, 1168998.305348977446556 ], [ 849880.413737091468647, 1168998.48955343849957 ], [ 849880.728658417589031, 1168998.652186263818294 ], [ 849881.054157303529792, 1168998.792455122573301 ], [ 849881.388647951534949, 1168998.909676638664678 ], [ 849881.730500756762922, 1168999.003279721131548 ], [ 849882.078050246695057, 1168999.072808345081285 ], [ 849882.429603195167147, 1168999.117923773592338 ], [ 849882.783446871559136, 1168999.138406209414825 ], [ 849883.137857384979725, 1168999.134155863896012 ], [ 849883.491108083166182, 1168999.105193444294855 ], [ 849883.84147796407342, 1168999.051660052733496 ], [ 849884.18726006092038, 1168998.973816498182714 ], [ 849884.526769758202136, 1168998.872042027069256 ], [ 849884.85835299862083, 1168998.746832474134862 ], [ 849885.18039434205275, 1168998.598797847749665 ], [ 849885.491324835340492, 1168998.428659357829019 ], [ 849885.789629656588659, 1168998.237245901953429 ], [ 849886.073855494498275, 1168998.025490026921034 ], [ 849886.342617629445158, 1168997.794423386687413 ], [ 849886.594606679398566, 1168997.545171714155003 ], [ 849886.828594978898764, 1168997.278949338709936 ], [ 849887.043442560476251, 1168996.997053268831223 ], [ 849887.238102708361112, 1168996.700856873998418 ], [ 849887.411627057823353, 1168996.391803193371743 ], [ 849887.563170215813443, 1168996.071397905005142 ], [ 849887.691993879154325, 1168995.74120199168101 ], [ 849887.79747043189127, 1168995.402824134333059 ], [ 849887.879086003056727, 1168995.057912876131013 ], [ 849887.936442969599739, 1168994.708148590056226 ], [ 849887.969261894235387, 1168994.355235292343423 ], [ 849887.977382886456326, 1168994.000892341136932 ], [ 849887.960766381584108, 1168993.646846059942618 ], [ 849887.919493333552964, 1168993.294821326620877 ], [ 849887.853764820494689, 1168992.946533169830218 ], [ 849887.76390106510371, 1168992.603678415063769 ], [ 849887.650339874671772, 1168992.267927415668964 ], [ 849887.513634507777169, 1168991.940915917279199 ], [ 849887.354450979270041, 1168991.624237086623907 ], [ 849887.173564815311693, 1168991.319433751516044 ], [ 849886.971857275115326, 1168991.027990882750601 ], [ 849886.75031105754897, 1168990.751328360987827 ], [ 849886.51000551355537, 1168990.490794057957828 ], [ 849886.252111387439072, 1168990.247657271102071 ], [ 849885.977885113563389, 1168990.023102537728846 ], [ 849885.688662694767118, 1168989.818223866634071 ], [ 849885.385853193583898, 1168989.634019405348226 ] ] ] } },
{ "type": "Feature", "properties": { "Layer": "LAGO Y CONSTRUCCIONES", "PaperSpace": null, "SubClasses": "AcDbEntity:AcDbLine", "Linetype": null, "EntityHand": "1C58", "Text": null }, "geometry": { "type": "MultiLineString", "coordinates": [ [ [ 850156.486206518951803, 1168746.410966382129118 ], [ 850153.338745115557685, 1168743.625160586321726 ] ] ] } },
{ "type": "Feature", "properties": { "Layer": "LAGO Y CONSTRUCCIONES", "PaperSpace": null, "SubClasses": "AcDbEntity:AcDbLine", "Linetype": null, "EntityHand": "1C59", "Text": null }, "geometry": { "type": "MultiLineString", "coordinates": [ [ [ 850153.69963026267942, 1168749.55929826782085 ], [ 850156.486206518951803, 1168746.410966382129118 ] ] ] } },
{ "type": "Feature", "properties": { "Layer": "LAGO Y CONSTRUCCIONES", "PaperSpace": null, "SubClasses": "AcDbEntity:AcDbPolyline", "Linetype": null, "EntityHand": "1C5A", "Text": null }, "geometry": { "type": "MultiLineString", "coordinates": [ [ [ 849929.38758366194088, 1168721.036352580180392 ], [ 849926.640365681378171, 1168727.995984009699896 ], [ 849913.608996273484081, 1168724.282084074569866 ], [ 849909.425731463707052, 1168735.541980399284512 ], [ 849898.037264352897182, 1168730.977623262442648 ], [ 849905.547632915549912, 1168711.616321959765628 ], [ 849929.38758366194088, 1168721.036352580180392 ] ] ] } },
{ "type": "Feature", "properties": { "Layer": "LAGO Y CONSTRUCCIONES", "PaperSpace": null, "SubClasses": "AcDbEntity:AcDbPolyline", "Linetype": null, "EntityHand": "1C5B", "Text": null }, "geometry": { "type": "MultiLineString", "coordinates": [ [ [ 849956.805277313571423, 1168826.546748533844948 ], [ 849952.957148131798021, 1168830.889830897795036 ], [ 849949.781086895498447, 1168827.84751003049314 ], [ 849953.766395123442635, 1168823.655488973250613 ], [ 849956.805277313571423, 1168826.546748533844948 ] ] ] } },
{ "type": "Feature", "properties": { "Layer": "LAGO Y CONSTRUCCIONES", "PaperSpace": null, "SubClasses": "AcDbEntity:AcDbPolyline", "Linetype": null, "EntityHand": "1C5C", "Text": null }, "geometry": { "type": "MultiLineString", "coordinates": [ [ [ 849852.929667229880579, 1168906.631127955392003 ], [ 849847.92814552760683, 1168912.041290886001661 ], [ 849845.748760099289939, 1168909.641609788872302 ], [ 849850.440196994808502, 1168904.318143331678584 ], [ 849852.929667229880579, 1168906.631127955392003 ] ] ] } },
{ "type": "Feature", "properties": { "Layer": "LAGO Y CONSTRUCCIONES", "PaperSpace": null, "SubClasses": "AcDbEntity:AcDbPolyline", "Linetype": null, "EntityHand": "1C5D", "Text": null }, "geometry": { "type": "MultiLineString", "coordinates": [ [ [ 849842.230683108908124, 1168971.43521768739447 ], [ 849840.646446464816108, 1168973.151546865701675 ], [ 849838.953579059569165, 1168971.578701445832849 ], [ 849840.525397257064469, 1168969.872098224470392 ], [ 849842.230683108908124, 1168971.43521768739447 ] ] ] } },
{ "type": "Feature", "properties": { "Layer": "LAGO Y CONSTRUCCIONES", "PaperSpace": null, "SubClasses": "AcDbEntity:AcDbPolyline", "Linetype": null, "EntityHand": "1C5E", "Text": null }, "geometry": { "type": "MultiLineString", "coordinates": [ [ [ 849880.294334239326417, 1169038.31218580622226 ], [ 849878.786736190784723, 1169036.756704919505864 ], [ 849875.777993537602015, 1169039.738013412570581 ], [ 849877.295058651128784, 1169041.327133317478001 ], [ 849880.294334239326417, 1169038.31218580622226 ] ] ] } },
{ "type": "Feature", "properties": { "Layer": "LAGO Y CONSTRUCCIONES", "PaperSpace": null, "SubClasses": "AcDbEntity:AcDbPolyline", "Linetype": null, "EntityHand": "1C5F", "Text": null }, "geometry": { "type": "MultiLineString", "coordinates": [ [ [ 849564.410073225502856, 1169193.925052199978381 ], [ 849560.26771216490306, 1169198.213304463541135 ], [ 849557.31267728714738, 1169194.897914319997653 ], [ 849561.562461260473356, 1169190.820441767573357 ], [ 849564.410073225502856, 1169193.925052199978381 ] ] ] } },
{ "type": "Feature", "properties": { "Layer": "LAGO Y CONSTRUCCIONES", "PaperSpace": null, "SubClasses": "AcDbEntity:AcDbPolyline", "Linetype": null, "EntityHand": "1C60", "Text": null }, "geometry": { "type": "MultiLineString", "coordinates": [ [ [ 849385.787629161961377, 1169335.883406230481341 ], [ 849381.50469866883941, 1169340.010266740107909 ], [ 849378.527996478136629, 1169336.866659211693332 ], [ 849382.907936557428911, 1169332.712644582381472 ], [ 849385.787629161961377, 1169335.883406230481341 ] ] ] } },
{ "type": "Feature", "properties": { "Layer": "LAGO Y CONSTRUCCIONES", "PaperSpace": null, "SubClasses": "AcDbEntity:AcDbPolyline", "Linetype": null, "EntityHand": "1C61", "Text": null }, "geometry": { "type": "MultiLineString", "coordinates": [ [ [ 849294.551132084685378, 1169603.324745155638084 ], [ 849291.0071482793428, 1169606.901213365839794 ], [ 849285.423508107312955, 1169600.838802660815418 ], [ 849288.855033884523436, 1169597.33834109804593 ], [ 849294.551132084685378, 1169603.324745155638084 ] ] ] } },
{ "type": "Feature", "properties": { "Layer": "LAGO Y CONSTRUCCIONES", "PaperSpace": null, "SubClasses": "AcDbEntity:AcDbPolyline", "Linetype": null, "EntityHand": "1C62", "Text": null }, "geometry": { "type": "MultiLineString", "coordinates": [ [ [ 849285.037209020461887, 1169595.166347621707246 ], [ 849282.082215965958312, 1169598.112731635570526 ], [ 849278.117102825315669, 1169594.040738240117207 ], [ 849281.101255730376579, 1169591.042482150020078 ], [ 849285.037209020461887, 1169595.166347621707246 ] ] ] } },
{ "type": "Feature", "properties": { "Layer": "LAGO Y CONSTRUCCIONES", "PaperSpace": null, "SubClasses": "AcDbEntity:AcDbPolyline", "Linetype": null, "EntityHand": "1C63", "Text": null }, "geometry": { "type": "MultiLineString", "coordinates": [ [ [ 849274.613113707164302, 1169589.271930076181889 ], [ 849273.164790825685486, 1169590.656411953736097 ], [ 849270.713406590395607, 1169588.035643661161885 ], [ 849272.133371999370866, 1169586.659117193659768 ], [ 849274.613113707164302, 1169589.271930076181889 ] ] ] } },
{ "type": "Feature", "properties": { "Layer": "LAGO Y CONSTRUCCIONES", "PaperSpace": null, "SubClasses": "AcDbEntity:AcDbPolyline", "Linetype": null, "EntityHand": "1C64", "Text": null }, "geometry": { "type": "MultiLineString", "coordinates": [ [ [ 849633.903002373757772, 1169009.030219375155866 ], [ 849631.5999120620545, 1169006.130556498188525 ], [ 849626.739875629195012, 1169009.990695865824819 ], [ 849629.053256071871147, 1169012.894233177183196 ], [ 849633.90886977314949, 1169009.037606614641845 ] ] ] } },
{ "type": "Feature", "properties": { "Layer": "LAGO Y CONSTRUCCIONES", "PaperSpace": null, "SubClasses": "AcDbEntity:AcDbPolyline", "Linetype": null, "EntityHand": "1C66", "Text": null }, "geometry": { "type": "MultiLineString", "coordinates": [ [ [ 849606.733205915428698, 1168609.368299849331379 ], [ 849590.293514776742086, 1168797.19198203808628 ], [ 849591.504052234464325, 1168799.882338384864852 ], [ 849593.256903000059538, 1168802.695345323998481 ], [ 849601.684280610992573, 1168796.449825937161222 ], [ 849605.460661602672189, 1168791.385887537384406 ], [ 849607.001998309511691, 1168790.341408029431477 ], [ 849614.934063085704111, 1168781.579854116309434 ], [ 849621.474335253238678, 1168774.541489956434816 ], [ 849627.867924175458029, 1168767.75543982675299 ], [ 849633.585930009721778, 1168760.910652487538755 ], [ 849664.3141144256806, 1168727.389991128118709 ], [ 849688.354984492762014, 1168701.568479574052617 ], [ 849710.274612019187771, 1168677.570346 ], [ 849727.825284464284778, 1168657.919515778077766 ], [ 849737.623815830680542, 1168648.313220344716683 ], [ 849743.529470196226612, 1168641.237044624751434 ] ] ] } },
{ "type": "Feature", "properties": { "Layer": "LAGO Y CONSTRUCCIONES", "PaperSpace": null, "SubClasses": "AcDbEntity:AcDbPolyline", "Linetype": null, "EntityHand": "1C67", "Text": null }, "geometry": { "type": "MultiLineString", "coordinates": [ [ [ 849446.863515437347814, 1168633.846124903764576 ], [ 849463.727515797247179, 1168640.126406364142895 ], [ 849488.344400258385576, 1168649.739427231950685 ], [ 849507.910916878376156, 1168650.441993847023696 ], [ 849511.183287522289902, 1168632.41822766023688 ], [ 849516.837676486931741, 1168600.842060930095613 ], [ 849519.895694342209026, 1168584.949670589296147 ] ] ] } },
{ "type": "Feature", "properties": { "Layer": "LAGO Y CONSTRUCCIONES", "PaperSpace": null, "SubClasses": "AcDbEntity:AcDbPolyline", "Linetype": null, "EntityHand": "1C68", "Text": null }, "geometry": { "type": "MultiLineString", "coordinates": [ [ [ 848944.205682245432399, 1169510.402593404287472 ], [ 848987.957239517010748, 1169448.85123073682189 ], [ 849053.600713697494939, 1169381.289158953586593 ], [ 849083.913134283735417, 1169349.871015906799585 ], [ 849082.254449001397006, 1169331.654926075367257 ], [ 849074.937799910199828, 1169319.263600236503407 ], [ 849070.658980343374424, 1169309.088845356600359 ], [ 849071.673665938084014, 1169299.16270616534166 ], [ 849074.331070350948721, 1169291.608956125797704 ], [ 849077.480456376913935, 1169277.05789062124677 ], [ 849085.612492860062048, 1169259.928106678184122 ], [ 849092.255539258825593, 1169242.788032473996282 ], [ 849099.785713000106625, 1169230.152633603895083 ], [ 849107.574548474745825, 1169215.403338949894533 ], [ 849111.526847996166907, 1169193.033950604964048 ], [ 849118.67567835864611, 1169165.573190093506128 ], [ 849131.959219278069213, 1169110.97723873401992 ], [ 849132.171409541042522, 1169105.482363647548482 ], [ 849134.467078383779153, 1169104.989224491640925 ], [ 849144.479459616588429, 1169065.378829383058473 ], [ 849180.011996756540611, 1169072.564883001381531 ], [ 849197.707671980373561, 1169076.242340618977323 ], [ 849226.043299290817231, 1169081.720209651160985 ], [ 849236.874100107932463, 1169062.402180695673451 ], [ 849351.649680644623004, 1168864.829195100115612 ], [ 849368.261584487161599, 1168873.89956151181832 ], [ 849372.285269059590064, 1168870.928159680217505 ] ] ] } },
{ "type": "Feature", "properties": { "Layer": "LAGO Y CONSTRUCCIONES", "PaperSpace": null, "SubClasses": "AcDbEntity:AcDbPolyline", "Linetype": null, "EntityHand": "1C69", "Text": null }, "geometry": { "type": "MultiLineString", "coordinates": [ [ [ 849375.252728059072979, 1168867.223887087544426 ], [ 849369.833836748031899, 1168856.308406138094142 ], [ 849370.764709454146214, 1168844.588701595785096 ], [ 849379.353732118499465, 1168828.688417849130929 ], [ 849385.898794766282663, 1168813.61466102162376 ], [ 849388.203061134088784, 1168810.648017149884254 ], [ 849393.389054418657906, 1168806.823309556813911 ], [ 849408.753967022523284, 1168798.741904017748311 ], [ 849422.988730991259217, 1168786.782459945417941 ], [ 849434.39621249306947, 1168774.747495679184794 ], [ 849436.863876493996941, 1168763.922960779629648 ], [ 849436.36659821041394, 1168746.299954618094489 ], [ 849445.078588984906673, 1168701.545109189348295 ], [ 849450.22817171108909, 1168683.043892350746319 ], [ 849452.902486248291098, 1168670.456627911888063 ], [ 849450.760393582866527, 1168662.725660426542163 ], [ 849447.127935501630418, 1168650.532470284029841 ], [ 849446.204400071874261, 1168639.965116306906566 ], [ 849447.562710263533518, 1168631.48321610270068 ], [ 849451.474570966209285, 1168624.428756679408252 ], [ 849462.143690442899242, 1168614.863703890470788 ], [ 849468.607894083950669, 1168609.529990907758474 ], [ 849478.511252119322307, 1168596.152259475551546 ], [ 849480.340725914924406, 1168590.492567585315555 ], [ 849484.045626459876075, 1168570.966788676800206 ], [ 849514.199657759047113, 1168579.166637511458248 ], [ 849517.432323309476487, 1168581.813457147218287 ], [ 849521.211778452852741, 1168585.552017104113474 ], [ 849606.733205915428698, 1168609.368299849331379 ], [ 849615.10925814777147, 1168611.700889870058745 ], [ 849648.582820397219621, 1168619.674496504012495 ], [ 849705.482586257043295, 1168632.623829609481618 ], [ 849757.770747737726197, 1168644.570655268151313 ], [ 849759.149954439839348, 1168643.198882665252313 ], [ 849802.391470590722747, 1168654.416771594667807 ], [ 849835.122237283736467, 1168663.882586725754663 ], [ 849869.271238519344479, 1168671.927646293304861 ], [ 849901.611044343560934, 1168680.681740347063169 ], [ 849919.108129295171238, 1168685.529129037866369 ], [ 849919.692544951569289, 1168685.667741666547954 ], [ 849924.912612785934471, 1168687.07875990588218 ], [ 849925.497028442332521, 1168687.217372534563765 ], [ 849945.440491502638906, 1168691.190342906629667 ], [ 849947.611199545091949, 1168690.596498273545876 ], [ 849969.29580582305789, 1168695.505889961495996 ], [ 850053.427327065612189, 1168711.554231584537774 ], [ 850105.474544686614536, 1168724.852088645333424 ], [ 850151.075469627277926, 1168733.859591122018173 ], [ 850162.743378203012981, 1168736.062999052461237 ] ] ] } },
{ "type": "Feature", "properties": { "Layer": "LAGO Y CONSTRUCCIONES", "PaperSpace": null, "SubClasses": "AcDbEntity:AcDbPolyline", "Linetype": null, "EntityHand": "1C6A", "Text": null }, "geometry": { "type": "MultiLineString", "coordinates": [ [ [ 850123.242781309294514, 1168782.186662012711167 ], [ 850121.141692861448973, 1168784.25902585615404 ], [ 850098.552950650104322, 1168763.957690270151943 ], [ 850102.985611317562871, 1168759.163569531403482 ], [ 850114.156451021437533, 1168769.248342536156997 ], [ 850111.759503858280368, 1168772.065442369319499 ], [ 850123.242781309294514, 1168782.186662012711167 ] ] ] } },
{ "type": "Feature", "properties": { "Layer": "LAGO Y CONSTRUCCIONES", "PaperSpace": null, "SubClasses": "AcDbEntity:AcDbHatch", "Linetype": null, "EntityHand": "1C73", "Text": "SOLID" }, "geometry": { "type": "MultiLineString", "coordinates": [ [ [ 849866.894519385765307, 1168968.073349017649889 ], [ 849910.36787670024205, 1169007.971389828948304 ], [ 849892.590905096963979, 1169027.578361818334088 ], [ 849848.309137946576811, 1168986.90400843298994 ], [ 849866.894519385765307, 1168968.073349017649889 ] ], [ [ 849874.395383069175296, 1168996.649999924004078 ], [ 849874.325359450420365, 1168996.989589511882514 ], [ 849874.278673485969193, 1168997.333166018826887 ], [ 849874.255542847211473, 1168997.679127532523125 ], [ 849874.25607537990436, 1168998.025861020898446 ], [ 849874.280268601258285, 1168998.371749851852655 ], [ 849874.328009711229242, 1168998.715181332547218 ], [ 849874.399076118599623, 1168999.054554226575419 ], [ 849874.493136479170062, 1168999.38828622084111 ], [ 849874.609752240008675, 1168999.714821302797645 ], [ 849874.748379684751853, 1169000.032637014985085 ], [ 849874.908372467965819, 1169000.340251554269344 ], [ 849875.088984629721381, 1169000.636230679461733 ], [ 849875.289374072570354, 1169000.919194398913532 ], [ 849875.508606488583609, 1169001.187823405722156 ], [ 849875.745659714913927, 1169001.440865227021277 ], [ 849875.999428499955684, 1169001.677140065003186 ], [ 849876.268729656701908, 1169001.895546297775581 ], [ 849876.552307578618638, 1169002.095065614208579 ], [ 849876.848840094637126, 1169002.274767763214186 ], [ 849877.156944633228704, 1169002.433814890682697 ], [ 849877.475184668786824, 1169002.571465445216745 ], [ 849877.802076419466175, 1169002.687077636364847 ], [ 849878.136095765046775, 1169002.780112426960841 ], [ 849878.475685352925211, 1169002.850136045832187 ], [ 849878.819261859986, 1169002.896822010166943 ], [ 849879.165223373682238, 1169002.919952648924664 ], [ 849879.511956861941144, 1169002.919420116348192 ], [ 849879.857845693011768, 1169002.895226894877851 ], [ 849880.201277173589915, 1169002.847485784906894 ], [ 849880.540650067501701, 1169002.776419377652928 ], [ 849880.874382061883807, 1169002.682359016966075 ], [ 849881.200917143840343, 1169002.565743256127462 ], [ 849881.518732856144197, 1169002.427115811500698 ], [ 849881.826347395312041, 1169002.267123028170317 ], [ 849882.122326520388015, 1169002.086510866414756 ], [ 849882.405290240072645, 1169001.886121423682198 ], [ 849882.673919246648438, 1169001.666889007668942 ], [ 849882.926961067947559, 1169001.429835781222209 ], [ 849883.163235906162299, 1169001.176066996296868 ], [ 849883.381642138818279, 1169000.906765839550644 ], [ 849883.581161455251276, 1169000.623187917517498 ], [ 849883.760863604373299, 1169000.326655401615426 ], [ 849883.919910731725395, 1169000.018550863023847 ], [ 849884.057561286259443, 1168999.700310827465728 ], [ 849884.17317347752396, 1168999.373419076669961 ], [ 849884.266208268119954, 1168999.039399731205776 ], [ 849884.266208268119954, 1168999.039399731205776 ], [ 849884.337523903464898, 1168998.692212522961199 ], [ 849884.38444726227317, 1168998.340896317968145 ], [ 849884.406749738380313, 1168997.987162693403661 ], [ 849884.404322676593438, 1168997.632735004182905 ], [ 849884.377177901100367, 1168997.27933998638764 ], [ 849884.325447658775374, 1168996.928699344862252 ], [ 849884.249383973889053, 1168996.582521365722641 ], [ 849884.149357421207242, 1168996.242492592893541 ], [ 849884.025855320040137, 1168995.910269612912089 ], [ 849883.879479360301048, 1168995.587470982223749 ], [ 849883.710942670702934, 1168995.27566934376955 ], [ 849883.521066345274448, 1168994.976383763598278 ], [ 849883.310775442281738, 1168994.69107233104296 ], [ 849883.08109447802417, 1168994.421125054359436 ], [ 849882.833142434828915, 1168994.167857090011239 ], [ 849882.568127310252748, 1168993.932502334006131 ], [ 849882.287340231356211, 1168993.716207410907373 ], [ 849881.992149164434522, 1168993.520026087760925 ], [ 849881.6839922509389, 1168993.344914140179753 ], [ 849881.364370800205506, 1168993.191724696429446 ], [ 849881.034841975779273, 1168993.061204079771414 ], [ 849880.697011209093034, 1168992.953988173510879 ], [ 849880.352524377638474, 1168992.870599322719499 ], [ 849880.003059786628, 1168992.811443789862096 ], [ 849879.650319992331788, 1168992.776809774106368 ], [ 849879.296023507718928, 1168992.766866009682417 ], [ 849878.941896429518238, 1168992.781660940963775 ], [ 849878.589664029306732, 1168992.821122488705441 ], [ 849878.241042348090559, 1168992.885058400454 ], [ 849877.897729835356586, 1168992.973157186526805 ], [ 849877.561399075319059, 1168993.084989638766274 ], [ 849877.233688637730666, 1168993.22001092042774 ], [ 849876.916195094701834, 1168993.377563221845776 ], [ 849876.610465242993087, 1168993.55687896348536 ], [ 849876.317988567636348, 1168993.757084537530318 ], [ 849876.040189985767938, 1168993.977204562397674 ], [ 849875.778422903851606, 1168994.21616663550958 ], [ 849875.533962624962442, 1168994.47280655731447 ], [ 849875.308000135119073, 1168994.745874004438519 ], [ 849875.101636300678365, 1168995.034038619371131 ], [ 849874.915876505547203, 1168995.335896493401378 ], [ 849874.751625752891414, 1168995.649977004854009 ], [ 849874.609684255672619, 1168995.974749985383824 ], [ 849874.490743538714014, 1168996.308633173350245 ], [ 849874.395383069175296, 1168996.649999924004078 ] ] ] } },
{ "type": "Feature", "properties": { "Layer": "LAGO Y CONSTRUCCIONES", "PaperSpace": null, "SubClasses": "AcDbEntity:AcDbHatch", "Linetype": null, "EntityHand": "1C74", "Text": "SOLID" }, "geometry": { "type": "MultiLineString", "coordinates": [ [ [ 849910.367783303139731, 1169007.971304113045335 ], [ 849892.590905096963979, 1169027.578361818334088 ], [ 849848.309137946576811, 1168986.90400843298994 ], [ 849866.894519385765307, 1168968.073349017649889 ], [ 849910.367783303139731, 1169007.971304113045335 ] ], [ [ 849881.816853719763458, 1168993.416932811029255 ], [ 849881.501932393643074, 1168993.254299985710531 ], [ 849881.176433507585898, 1168993.114031127188355 ], [ 849880.84194285958074, 1168992.996809610864148 ], [ 849880.500090054352768, 1168992.903206528397277 ], [ 849880.152540564420633, 1168992.833677904680371 ], [ 849879.800987615948543, 1168992.788562475936487 ], [ 849879.447143939556554, 1168992.768080040114 ], [ 849879.092733426135965, 1168992.772330385632813 ], [ 849878.739482728065923, 1168992.80129280523397 ], [ 849878.38911284704227, 1168992.854826196795329 ], [ 849878.04333075019531, 1168992.932669751346111 ], [ 849877.703821053029969, 1168993.03444422245957 ], [ 849877.372237812611274, 1168993.159653775393963 ], [ 849877.050196469179355, 1168993.30768840177916 ], [ 849876.739265975775197, 1168993.477826891699806 ], [ 849876.440961154527031, 1168993.669240347808227 ], [ 849876.156735316617414, 1168993.880996222607791 ], [ 849875.887973181670532, 1168994.112062862841412 ], [ 849875.635984131833538, 1168994.361314535373822 ], [ 849875.401995832333341, 1168994.62753691081889 ], [ 849875.187148250755854, 1168994.909432980697602 ], [ 849874.992488102870993, 1168995.205629375530407 ], [ 849874.818963753292337, 1168995.514683056389913 ], [ 849874.667420595418662, 1168995.835088344523683 ], [ 849874.53859693207778, 1168996.165284258080646 ], [ 849874.43312037922442, 1168996.503662115195766 ], [ 849874.351504808058962, 1168996.848573373397812 ], [ 849874.294147841515951, 1168997.19833765970543 ], [ 849874.261328916880302, 1168997.551250957185403 ], [ 849874.253207924659364, 1168997.905593908391893 ], [ 849874.269824429647997, 1168998.259640189586207 ], [ 849874.311097477679141, 1168998.611664923140779 ], [ 849874.376825990737416, 1168998.959953079698607 ], [ 849874.46668974601198, 1168999.302807834697887 ], [ 849874.580250936560333, 1168999.638558833859861 ], [ 849874.71695630333852, 1168999.965570332249627 ], [ 849874.876139831845649, 1169000.282249162904918 ], [ 849875.057025995803997, 1169000.587052498245612 ], [ 849875.258733536000364, 1169000.878495366778225 ], [ 849875.48027975356672, 1169001.155157888773829 ], [ 849875.720585297676735, 1169001.415692191570997 ], [ 849875.978479423676617, 1169001.658828978659585 ], [ 849876.252705697552301, 1169001.883383711799979 ], [ 849876.541928116348572, 1169002.088262383127585 ], [ 849876.844737617531791, 1169002.272466844180599 ], [ 849876.844737617531791, 1169002.272466844180599 ], [ 849877.159658943652175, 1169002.435099669499323 ], [ 849877.485157829592936, 1169002.5753685280215 ], [ 849877.819648477598093, 1169002.692590044345707 ], [ 849878.161501282826066, 1169002.786193126812577 ], [ 849878.509050772758201, 1169002.855721750529483 ], [ 849878.860603721230291, 1169002.900837179273367 ], [ 849879.21444739762228, 1169002.921319615095854 ], [ 849879.568857911159284, 1169002.917069269577041 ], [ 849879.922108609229326, 1169002.888106849975884 ], [ 849880.272478490136564, 1169002.834573458181694 ], [ 849880.61826058709994, 1169002.756729903863743 ], [ 849880.95777028426528, 1169002.654955432750285 ], [ 849881.289353524683975, 1169002.529745879815891 ], [ 849881.611394868115894, 1169002.381711253430694 ], [ 849881.922325361520052, 1169002.211572763277218 ], [ 849882.220630182651803, 1169002.020159307401627 ], [ 849882.504856020677835, 1169001.808403432602063 ], [ 849882.773618155624717, 1169001.577336792135611 ], [ 849883.025607205461711, 1169001.328085119836032 ], [ 849883.259595504961908, 1169001.061862744158134 ], [ 849883.474443086539395, 1169000.779966674512252 ], [ 849883.669103234424256, 1169000.483770279679447 ], [ 849883.842627583886497, 1169000.174716598819941 ], [ 849883.994170741876587, 1168999.854311310686171 ], [ 849884.122994405217469, 1168999.524115397129208 ], [ 849884.22847095807083, 1168999.185737539781258 ], [ 849884.310086529119872, 1168998.840826281579211 ], [ 849884.367443495779298, 1168998.491061995504424 ], [ 849884.400262420414947, 1168998.138148697791621 ], [ 849884.40838341251947, 1168997.783805746817961 ], [ 849884.391766907647252, 1168997.429759465623647 ], [ 849884.350493859616108, 1168997.077734732069075 ], [ 849884.284765346557833, 1168996.729446575511247 ], [ 849884.194901591283269, 1168996.386591820511967 ], [ 849884.081340400734916, 1168996.050840821349993 ], [ 849883.944635033840314, 1168995.723829322727397 ], [ 849883.785451505449601, 1168995.407150492304936 ], [ 849883.604565341491252, 1168995.102347156964242 ], [ 849883.402857801294886, 1168994.810904288198799 ], [ 849883.18131158372853, 1168994.534241766436026 ], [ 849882.941006039618514, 1168994.273707463638857 ], [ 849882.683111913502216, 1168994.030570676550269 ], [ 849882.408885639626533, 1168993.806015943409875 ], [ 849882.119663220830262, 1168993.601137272082269 ], [ 849881.816853719763458, 1168993.416932811029255 ] ] ] } },
{ "type": "Feature", "properties": { "Layer": "LAGO Y CONSTRUCCIONES", "PaperSpace": null, "SubClasses": "AcDbEntity:AcDbLine", "Linetype": null, "EntityHand": "1C75", "Text": null }, "geometry": { "type": "MultiLineString", "coordinates": [ [ [ 849910.367783303139731, 1169007.971304113045335 ], [ 849892.590905096963979, 1169027.578361818334088 ] ] ] } },
{ "type": "Feature", "properties": { "Layer": "LAGO Y CONSTRUCCIONES", "PaperSpace": null, "SubClasses": "AcDbEntity:AcDbPolyline", "Linetype": null, "EntityHand": "1C76", "Text": null }, "geometry": { "type": "MultiLineString", "coordinates": [ [ [ 849910.367783303139731, 1169007.971304113045335 ], [ 849892.590905096963979, 1169027.578361818334088 ], [ 849848.309137946576811, 1168986.90400843298994 ], [ 849866.894519385765307, 1168968.073349017649889 ], [ 849910.367783303139731, 1169007.971304113045335 ] ] ] } },
{ "type": "Feature", "properties": { "Layer": "LAGO Y CONSTRUCCIONES", "PaperSpace": null, "SubClasses": "AcDbEntity:AcDbHatch", "Linetype": null, "EntityHand": "1C77", "Text": "SOLID" }, "geometry": { "type": "MultiLineString", "coordinates": [ [ [ 849881.816853719763458, 1168993.416932811029255 ], [ 849882.119663220830262, 1168993.601137272082269 ], [ 849882.408885639626533, 1168993.806015943409875 ], [ 849882.683111913502216, 1168994.030570676550269 ], [ 849882.941006039618514, 1168994.273707463638857 ], [ 849883.18131158372853, 1168994.534241766436026 ], [ 849883.402857801294886, 1168994.810904288198799 ], [ 849883.604565341491252, 1168995.102347156964242 ], [ 849883.785451505449601, 1168995.407150492304936 ], [ 849883.944635033840314, 1168995.723829322727397 ], [ 849884.081340400734916, 1168996.050840821349993 ], [ 849884.194901591166854, 1168996.386591820511967 ], [ 849884.284765346557833, 1168996.729446575511247 ], [ 849884.350493859616108, 1168997.077734732069075 ], [ 849884.391766907647252, 1168997.429759465623647 ], [ 849884.40838341251947, 1168997.783805746817961 ], [ 849884.400262420414947, 1168998.138148697791621 ], [ 849884.367443495779298, 1168998.491061995504424 ], [ 849884.310086529119872, 1168998.840826281579211 ], [ 849884.22847095807083, 1168999.185737539781258 ], [ 849884.122994405217469, 1168999.524115397129208 ], [ 849883.994170741876587, 1168999.85431131045334 ], [ 849883.842627583886497, 1169000.174716598819941 ], [ 849883.669103234424256, 1169000.483770279679447 ], [ 849883.474443086539395, 1169000.779966674512252 ], [ 849883.259595504961908, 1169001.061862744158134 ], [ 849883.025607205461711, 1169001.328085119836032 ], [ 849882.773618155624717, 1169001.577336792135611 ], [ 849882.504856020677835, 1169001.808403432602063 ], [ 849882.220630182651803, 1169002.020159307401627 ], [ 849881.922325361520052, 1169002.211572763277218 ], [ 849881.611394868115894, 1169002.381711253430694 ], [ 849881.289353524683975, 1169002.529745879815891 ], [ 849880.95777028426528, 1169002.654955432750285 ], [ 849880.61826058709994, 1169002.756729903863743 ], [ 849880.272478490136564, 1169002.834573458181694 ], [ 849879.922108609229326, 1169002.888106849975884 ], [ 849879.568857911159284, 1169002.917069269577041 ], [ 849879.21444739762228, 1169002.921319615095854 ], [ 849878.860603721230291, 1169002.900837179273367 ], [ 849878.509050772758201, 1169002.855721750529483 ], [ 849878.161501282826066, 1169002.786193126812577 ], [ 849877.819648477598093, 1169002.692590044345707 ], [ 849877.485157829592936, 1169002.5753685280215 ], [ 849877.159658943652175, 1169002.435099669499323 ], [ 849876.844737617531791, 1169002.272466844180599 ], [ 849876.541928116348572, 1169002.088262383127585 ], [ 849876.252705697552301, 1169001.883383711799979 ], [ 849875.978479423676617, 1169001.658828978659585 ], [ 849875.720585297676735, 1169001.415692191570997 ], [ 849875.48027975356672, 1169001.155157888540998 ], [ 849875.258733536000364, 1169000.878495366778225 ], [ 849875.057025995803997, 1169000.587052498245612 ], [ 849874.876139831845649, 1169000.282249162904918 ], [ 849874.71695630333852, 1168999.965570332249627 ], [ 849874.580250936560333, 1168999.638558833859861 ], [ 849874.46668974601198, 1168999.302807834697887 ], [ 849874.376825990737416, 1168998.959953079698607 ], [ 849874.311097477679141, 1168998.611664923140779 ], [ 849874.269824429647997, 1168998.259640189586207 ], [ 849874.253207924659364, 1168997.905593908391893 ], [ 849874.261328916880302, 1168997.551250957185403 ], [ 849874.294147841515951, 1168997.19833765970543 ], [ 849874.351504808058962, 1168996.848573373397812 ], [ 849874.43312037922442, 1168996.503662115195766 ], [ 849874.53859693207778, 1168996.165284258080646 ], [ 849874.667420595418662, 1168995.835088344523683 ], [ 849874.818963753292337, 1168995.514683056389913 ], [ 849874.992488102870993, 1168995.205629375530407 ], [ 849875.187148250755854, 1168994.909432980697602 ], [ 849875.401995832333341, 1168994.62753691081889 ], [ 849875.635984131833538, 1168994.361314535373822 ], [ 849875.887973181670532, 1168994.112062862841412 ], [ 849876.156735316617414, 1168993.880996222607791 ], [ 849876.440961154527031, 1168993.669240347808227 ], [ 849876.739265975775197, 1168993.477826891699806 ], [ 849877.050196469179355, 1168993.30768840177916 ], [ 849877.372237812611274, 1168993.159653775393963 ], [ 849877.703821053029969, 1168993.03444422245957 ], [ 849878.04333075019531, 1168992.932669751346111 ], [ 849878.38911284704227, 1168992.854826196795329 ], [ 849878.739482728065923, 1168992.80129280523397 ], [ 849879.092733426135965, 1168992.772330385632813 ], [ 849879.447143939556554, 1168992.768080040114 ], [ 849879.800987615948543, 1168992.788562475936487 ], [ 849880.152540564420633, 1168992.833677904680371 ], [ 849880.500090054352768, 1168992.903206528397277 ], [ 849880.84194285958074, 1168992.996809610864148 ], [ 849881.176433507585898, 1168993.114031127188355 ], [ 849881.501932393643074, 1168993.254299985710531 ], [ 849881.816853719763458, 1168993.416932811029255 ] ] ] } },
{ "type": "Feature", "properties": { "Layer": "LAGO Y CONSTRUCCIONES", "PaperSpace": null, "SubClasses": "AcDbEntity:AcDbLine", "Linetype": null, "EntityHand": "1C78", "Text": null }, "geometry": { "type": "MultiLineString", "coordinates": [ [ [ 849870.450021521770395, 1169007.241185125662014 ], [ 849888.622011443367228, 1168988.013938343850896 ] ] ] } },
{ "type": "Feature", "properties": { "Layer": "LAGO Y CONSTRUCCIONES", "PaperSpace": null, "SubClasses": "AcDbEntity:AcDbCircle", "Linetype": null, "EntityHand": "1C79", "Text": null }, "geometry": { "type": "MultiLineString", "coordinates": [ [ [ 849881.816853719763458, 1168993.416932811029255 ], [ 849881.501932393643074, 1168993.254299985710531 ], [ 849881.176433507585898, 1168993.114031127188355 ], [ 849880.84194285958074, 1168992.996809610864148 ], [ 849880.500090054352768, 1168992.903206528397277 ], [ 849880.152540564420633, 1168992.833677904680371 ], [ 849879.800987615948543, 1168992.788562475936487 ], [ 849879.447143939556554, 1168992.768080040114 ], [ 849879.092733426135965, 1168992.772330385632813 ], [ 849878.739482728065923, 1168992.80129280523397 ], [ 849878.38911284704227, 1168992.854826196795329 ], [ 849878.04333075019531, 1168992.932669751346111 ], [ 849877.703821053029969, 1168993.03444422245957 ], [ 849877.372237812611274, 1168993.159653775393963 ], [ 849877.050196469179355, 1168993.30768840177916 ], [ 849876.739265975775197, 1168993.477826891699806 ], [ 849876.440961154527031, 1168993.669240347808227 ], [ 849876.156735316617414, 1168993.880996222607791 ], [ 849875.887973181670532, 1168994.112062862841412 ], [ 849875.635984131833538, 1168994.361314535373822 ], [ 849875.401995832333341, 1168994.62753691081889 ], [ 849875.187148250755854, 1168994.909432980697602 ], [ 849874.992488102870993, 1168995.205629375530407 ], [ 849874.818963753292337, 1168995.514683056389913 ], [ 849874.667420595418662, 1168995.835088344523683 ], [ 849874.53859693207778, 1168996.165284258080646 ], [ 849874.43312037922442, 1168996.503662115195766 ], [ 849874.351504808058962, 1168996.848573373397812 ], [ 849874.294147841515951, 1168997.19833765970543 ], [ 849874.261328916880302, 1168997.551250957185403 ], [ 849874.253207924659364, 1168997.905593908391893 ], [ 849874.269824429647997, 1168998.259640189586207 ], [ 849874.311097477679141, 1168998.611664923140779 ], [ 849874.376825990737416, 1168998.959953079698607 ], [ 849874.46668974601198, 1168999.302807834697887 ], [ 849874.580250936560333, 1168999.638558833859861 ], [ 849874.71695630333852, 1168999.965570332249627 ], [ 849874.876139831845649, 1169000.282249162904918 ], [ 849875.057025995803997, 1169000.587052498245612 ], [ 849875.258733536000364, 1169000.878495366778225 ], [ 849875.48027975356672, 1169001.155157888540998 ], [ 849875.720585297676735, 1169001.415692191570997 ], [ 849875.978479423676617, 1169001.658828978659585 ], [ 849876.252705697552301, 1169001.883383711799979 ], [ 849876.541928116348572, 1169002.088262383127585 ], [ 849876.844737617531791, 1169002.272466844180599 ], [ 849877.159658943652175, 1169002.435099669499323 ], [ 849877.485157829592936, 1169002.5753685280215 ], [ 849877.819648477598093, 1169002.692590044345707 ], [ 849878.161501282826066, 1169002.786193126812577 ], [ 849878.509050772758201, 1169002.855721750529483 ], [ 849878.860603721230291, 1169002.900837179273367 ], [ 849879.21444739762228, 1169002.921319615095854 ], [ 849879.568857911159284, 1169002.917069269577041 ], [ 849879.922108609229326, 1169002.888106849975884 ], [ 849880.272478490136564, 1169002.834573458181694 ], [ 849880.61826058709994, 1169002.756729903863743 ], [ 849880.95777028426528, 1169002.654955432750285 ], [ 849881.289353524683975, 1169002.529745879815891 ], [ 849881.611394868115894, 1169002.381711253430694 ], [ 849881.922325361520052, 1169002.211572763277218 ], [ 849882.220630182651803, 1169002.020159307401627 ], [ 849882.504856020677835, 1169001.808403432602063 ], [ 849882.773618155624717, 1169001.577336792135611 ], [ 849883.025607205461711, 1169001.328085119836032 ], [ 849883.259595504961908, 1169001.061862744158134 ], [ 849883.474443086539395, 1169000.779966674512252 ], [ 849883.669103234424256, 1169000.483770279679447 ], [ 849883.842627583886497, 1169000.174716598819941 ], [ 849883.994170741876587, 1168999.85431131045334 ], [ 849884.122994405217469, 1168999.524115397129208 ], [ 849884.22847095807083, 1168999.185737539781258 ], [ 849884.310086529119872, 1168998.840826281579211 ], [ 849884.367443495779298, 1168998.491061995504424 ], [ 849884.400262420414947, 1168998.138148697791621 ], [ 849884.40838341251947, 1168997.783805746817961 ], [ 849884.391766907647252, 1168997.429759465623647 ], [ 849884.350493859616108, 1168997.077734732069075 ], [ 849884.284765346557833, 1168996.729446575511247 ], [ 849884.194901591166854, 1168996.386591820511967 ], [ 849884.081340400734916, 1168996.050840821349993 ], [ 849883.944635033840314, 1168995.723829322727397 ], [ 849883.785451505449601, 1168995.407150492304936 ], [ 849883.604565341491252, 1168995.102347156964242 ], [ 849883.402857801294886, 1168994.810904288198799 ], [ 849883.18131158372853, 1168994.534241766436026 ], [ 849882.941006039618514, 1168994.273707463638857 ], [ 849882.683111913502216, 1168994.030570676550269 ], [ 849882.408885639626533, 1168993.806015943409875 ], [ 849882.119663220830262, 1168993.601137272082269 ], [ 849881.816853719763458, 1168993.416932811029255 ] ] ] } },
{ "type": "Feature", "properties": { "Layer": "LAGO Y CONSTRUCCIONES", "PaperSpace": null, "SubClasses": "AcDbEntity:AcDbLine", "Linetype": null, "EntityHand": "1C7A", "Text": null }, "geometry": { "type": "MultiLineString", "coordinates": [ [ [ 849848.309137946576811, 1168986.90400843298994 ], [ 849866.894519385765307, 1168968.073349017649889 ] ] ] } },
{ "type": "Feature", "properties": { "Layer": "LAGO Y CONSTRUCCIONES", "PaperSpace": null, "SubClasses": "AcDbEntity:AcDbLine", "Linetype": null, "EntityHand": "1C7B", "Text": null }, "geometry": { "type": "MultiLineString", "coordinates": [ [ [ 849888.631151344510727, 1168988.022326565347612 ], [ 849870.461058343178593, 1169007.229507390409708 ] ] ] } },
{ "type": "Feature", "properties": { "Layer": "LAGO Y CONSTRUCCIONES", "PaperSpace": null, "SubClasses": "AcDbEntity:AcDbLine", "Linetype": null, "EntityHand": "1C7C", "Text": null }, "geometry": { "type": "MultiLineString", "coordinates": [ [ [ 849888.622011443367228, 1168988.013938343850896 ], [ 849870.461058348882943, 1169007.229507384356111 ] ] ] } }
]
}
