{
"type": "FeatureCollection",
"name": "PoscosechaOriginalReal",
"crs": { "type": "name", "properties": { "name": "urn:ogc:def:crs:EPSG::3116" } },
"features": [
{ "type": "Feature", "properties": { "fid": 0 }, "geometry": { "type": "MultiPolygon", "coordinates": [ [ [ [ 849838.203964000800624, 1169022.275296741863713 ], [ 849833.617391141015105, 1169026.351101195672527 ], [ 849865.290025129099376, 1169059.324195576831698 ], [ 849892.446594455861486, 1169033.46811038069427 ], [ 849860.7739604676608, 1169000.495015999302268 ], [ 849857.356331261224113, 1169003.911667697131634 ], [ 849848.105416452744976, 1168993.656777638010681 ], [ 849829.752565128961578, 1169013.156682169763371 ], [ 849838.203964000800624, 1169022.275296741863713 ] ] ] ] } },
{ "type": "Feature", "properties": { "fid": 1 }, "geometry": { "type": "MultiPolygon", "coordinates": [ [ [ [ 849873.064620467368513, 1168953.950404207222164 ], [ 849860.136544204549864, 1168943.605610633036122 ], [ 849851.083847584668547, 1168955.241165117360651 ], [ 849864.011847949586809, 1168966.232440116349608 ], [ 849873.064620467368513, 1168953.950404207222164 ] ] ] ] } },
{ "type": "Feature", "properties": { "fid": 2 }, "geometry": { "type": "MultiPolygon", "coordinates": [ [ [ [ 849882.121095097856596, 1168918.395468153757975 ], [ 849872.42525030951947, 1168909.343930335016921 ], [ 849866.605813526082784, 1168915.808061057236046 ], [ 849875.65521937829908, 1168924.859534910181537 ], [ 849882.121095097856596, 1168918.395468153757975 ] ] ] ] } },
{ "type": "Feature", "properties": { "fid": 3 }, "geometry": { "type": "MultiPolygon", "coordinates": [ [ [ [ 849871.133293036837131, 1168902.879122875165194 ], [ 849868.547657218179666, 1168900.939449668629095 ], [ 849864.021411746740341, 1168906.110745489131659 ], [ 849865.960581688326783, 1168908.05035472731106 ], [ 849871.133293036837131, 1168902.879122875165194 ] ] ] ] } },
{ "type": "Feature", "properties": { "fid": 4 }, "geometry": { "type": "MultiPolygon", "coordinates": [ [ [ [ 849805.177297133719549, 1168992.731872184667736 ], [ 849804.53093409514986, 1168992.085326794534922 ], [ 849801.944448641967028, 1168995.317424139706418 ], [ 849803.237331438460387, 1168995.964033503318205 ], [ 849805.177297133719549, 1168992.731872184667736 ] ] ] ] } },
{ "type": "Feature", "properties": { "fid": 5 }, "geometry": { "type": "MultiPolygon", "coordinates": [ [ [ [ 849654.545687910402194, 1168993.363448506919667 ], [ 849650.021087822737172, 1168988.191230158321559 ], [ 849646.141773454030044, 1168990.776718145469204 ], [ 849650.01985378365498, 1168995.948872519889846 ], [ 849654.545687910402194, 1168993.363448506919667 ] ] ] ] } },
{ "type": "Feature", "properties": { "fid": 6 }, "geometry": { "type": "MultiPolygon", "coordinates": [ [ [ [ 849648.726689416798763, 1168997.24168048449792 ], [ 849644.848582146689296, 1168992.069526107050478 ], [ 849638.382885158876888, 1168997.240656957263127 ], [ 849642.260992433293723, 1169002.412784394575283 ], [ 849648.726689416798763, 1168997.24168048449792 ] ] ] ] } },
{ "type": "Feature", "properties": { "fid": 7 }, "geometry": { "type": "MultiPolygon", "coordinates": [ [ [ [ 849651.957995363045484, 1169004.353161276318133 ], [ 849649.372462378581986, 1169001.767033588141203 ], [ 849644.846422579488717, 1169005.645393504761159 ], [ 849646.78548968269024, 1169008.231484164949507 ], [ 849651.957995363045484, 1169004.353161276318133 ] ] ] ] } },
{ "type": "Feature", "properties": { "fid": 8 }, "geometry": { "type": "MultiPolygon", "coordinates": [ [ [ [ 849613.810409100842662, 1169034.733475046930835 ], [ 849606.700481701176614, 1169025.68219310673885 ], [ 849602.821064494084567, 1169028.91416251542978 ], [ 849609.284499080618843, 1169037.965353544568643 ], [ 849613.810409100842662, 1169034.733475046930835 ] ] ] ] } },
{ "type": "Feature", "properties": { "fid": 9 }, "geometry": { "type": "MultiPolygon", "coordinates": [ [ [ [ 849597.651822645333596, 1169012.105430123861879 ], [ 849577.615053021814674, 1168984.951712247682735 ], [ 849573.089116056915373, 1168988.183617682661861 ], [ 849593.12591262080241, 1169015.337335561634973 ], [ 849597.651822645333596, 1169012.105430123861879 ] ] ] ] } },
{ "type": "Feature", "properties": { "fid": 10 }, "geometry": { "type": "MultiPolygon", "coordinates": [ [ [ [ 849507.151554828393273, 1168962.318293813150376 ], [ 849483.236650989856571, 1168929.992448497097939 ], [ 849461.25351286737714, 1168946.152012708364055 ], [ 849470.948664740659297, 1168959.728839662391692 ], [ 849472.2413418648066, 1168961.668384929653257 ], [ 849464.482453569653444, 1168968.132323741680011 ], [ 849471.592483807704411, 1168976.537124260095879 ], [ 849479.351269264472649, 1168970.719666869845241 ], [ 849485.814909519045614, 1168978.477948935469612 ], [ 849507.151554828393273, 1168962.318293813150376 ] ] ] ] } },
{ "type": "Feature", "properties": { "fid": 11 }, "geometry": { "type": "MultiPolygon", "coordinates": [ [ [ [ 849359.747831004438922, 1168991.394860683940351 ], [ 849355.223360691452399, 1168985.57618785649538 ], [ 849352.637107855640352, 1168987.515322360675782 ], [ 849357.161578164319508, 1168993.334022128256038 ], [ 849359.747831004438922, 1168991.394860683940351 ] ] ] ] } },
{ "type": "Feature", "properties": { "fid": 12 }, "geometry": { "type": "MultiPolygon", "coordinates": [ [ [ [ 849531.773700915277004, 1168612.580633335979655 ], [ 849514.966050726012327, 1168606.114290586672723 ], [ 849508.498605520231649, 1168622.275390087626874 ], [ 849516.902444083010778, 1168625.508574933279306 ], [ 849520.136088328203186, 1168617.751252421177924 ], [ 849529.186522546922788, 1168620.338019816437736 ], [ 849531.773700915277004, 1168612.580633335979655 ] ] ] ] } },
{ "type": "Feature", "properties": { "fid": 13 }, "geometry": { "type": "MultiPolygon", "coordinates": [ [ [ [ 849516.253277519368567, 1168642.316704649012536 ], [ 849511.081670426647179, 1168640.376802498940378 ], [ 849509.78809471486602, 1168644.255482270382345 ], [ 849514.313284883624874, 1168645.548865965334699 ], [ 849516.253277519368567, 1168642.316704649012536 ] ] ] ] } },
{ "type": "Feature", "properties": { "fid": 14 }, "geometry": { "type": "MultiPolygon", "coordinates": [ [ [ [ 849948.094676045351662, 1168717.996389277046546 ], [ 849924.176199868670665, 1168708.296989626716822 ], [ 849917.061747662140988, 1168727.690378385363147 ], [ 849928.051324881846085, 1168732.216755016008392 ], [ 849932.578468945343047, 1168721.227207216899842 ], [ 849945.507600515382364, 1168725.107294335728511 ], [ 849948.094676045351662, 1168717.996389277046546 ] ] ] ] } },
{ "type": "Feature", "properties": { "fid": 15 }, "geometry": { "type": "MultiPolygon", "coordinates": [ [ [ [ 849971.998343762359582, 1168820.787443386390805 ], [ 849968.118823721189983, 1168824.665867276722565 ], [ 849971.350746684707701, 1168827.898540357826278 ], [ 849975.230369564262219, 1168823.373635045718402 ], [ 849971.998343762359582, 1168820.787443386390805 ] ] ] ] } },
{ "type": "Feature", "properties": { "fid": 16 }, "geometry": { "type": "MultiPolygon", "coordinates": [ [ [ [ 849964.240922119119205, 1168818.200803935993463 ], [ 849961.65446360653732, 1168821.432901283726096 ], [ 849963.593606611830182, 1168823.372483579441905 ], [ 849966.826557941851206, 1168820.140450202394277 ], [ 849964.240922119119205, 1168818.200803935993463 ] ] ] ] } },
{ "type": "Feature", "properties": { "fid": 17 }, "geometry": { "type": "MultiPolygon", "coordinates": [ [ [ [ 849728.854899883037433, 1169224.806924524484202 ], [ 849720.449340038350783, 1169232.563735271804035 ], [ 849721.742093060282059, 1169233.856799114728346 ], [ 849730.147679841145873, 1169226.100015310337767 ], [ 849728.854899883037433, 1169224.806924524484202 ] ] ] ] } },
{ "type": "Feature", "properties": { "fid": 18 }, "geometry": { "type": "MultiPolygon", "coordinates": [ [ [ [ 849691.998036854434758, 1169269.409688116749749 ], [ 849681.652792884968221, 1169278.45924285473302 ], [ 849682.945572847500443, 1169279.752306700218469 ], [ 849693.290789872058667, 1169270.702778899576515 ], [ 849691.998036854434758, 1169269.409688116749749 ] ] ] ] } },
{ "type": "Feature", "properties": { "fid": 19 }, "geometry": { "type": "MultiPolygon", "coordinates": [ [ [ [ 849577.583173705497757, 1169185.35731610446237 ], [ 849573.057133906404488, 1169189.235676021315157 ], [ 849576.289056869922206, 1169192.46834910241887 ], [ 849580.168706689961255, 1169187.943443792872131 ], [ 849577.583173705497757, 1169185.35731610446237 ] ] ] ] } },
{ "type": "Feature", "properties": { "fid": 20 }, "geometry": { "type": "MultiPolygon", "coordinates": [ [ [ [ 849414.648666943539865, 1169309.463365592760965 ], [ 849400.42367031564936, 1169323.684307062067091 ], [ 849404.301880424143746, 1169328.209980017971247 ], [ 849419.17324009060394, 1169314.635583938332275 ], [ 849414.648666943539865, 1169309.463365592760965 ] ] ] ] } },
{ "type": "Feature", "properties": { "fid": 21 }, "geometry": { "type": "MultiPolygon", "coordinates": [ [ [ [ 849399.776663314900361, 1169326.916596320224926 ], [ 849395.250650456291623, 1169330.79495623963885 ], [ 849398.482573419925757, 1169334.027629320742562 ], [ 849402.362120405770838, 1169330.149178493069485 ], [ 849399.776663314900361, 1169326.916596320224926 ] ] ] ] } },
{ "type": "Feature", "properties": { "fid": 22 }, "geometry": { "type": "MultiPolygon", "coordinates": [ [ [ [ 849304.701097010518424, 1169590.666817446937785 ], [ 849300.821652862825431, 1169593.898786853067577 ], [ 849306.63900597684551, 1169600.36404210398905 ], [ 849309.872060141060501, 1169596.485554245300591 ], [ 849304.701097010518424, 1169590.666817446937785 ] ] ] ] } },
{ "type": "Feature", "properties": { "fid": 23 }, "geometry": { "type": "MultiPolygon", "coordinates": [ [ [ [ 849296.944292389089242, 1169584.201343345688656 ], [ 849293.711341058951803, 1169587.433376722503453 ], [ 849297.589627065230161, 1169591.312568253604695 ], [ 849300.822475556982681, 1169588.727016298566014 ], [ 849296.944292389089242, 1169584.201343345688656 ] ] ] ] } },
{ "type": "Feature", "properties": { "fid": 24 }, "geometry": { "type": "MultiPolygon", "coordinates": [ [ [ [ 849155.395765509572811, 1169381.842339586466551 ], [ 849150.223362671793438, 1169385.074154113186523 ], [ 849154.74765424861107, 1169392.185789786744863 ], [ 849159.920057090581395, 1169388.953948320122436 ], [ 849155.395765509572811, 1169381.842339586466551 ] ] ] ] } },
{ "type": "Feature", "properties": { "fid": 25 }, "geometry": { "type": "MultiPolygon", "coordinates": [ [ [ [ 849146.343507179291919, 1169390.891995326383039 ], [ 849144.403849990689196, 1169392.184766259742901 ], [ 849146.989074464188889, 1169396.710311273578554 ], [ 849148.928731652908027, 1169395.417540339985862 ], [ 849146.343507179291919, 1169390.891995326383039 ] ] ] ] } },
{ "type": "Feature", "properties": { "fid": 26 }, "geometry": { "type": "MultiPolygon", "coordinates": [ [ [ [ 849149.578720910707489, 1169373.4376400699839 ], [ 849146.345872418954968, 1169376.023192025022581 ], [ 849149.577692544087768, 1169379.902346527902409 ], [ 849152.810541035840288, 1169377.316794572630897 ], [ 849149.578720910707489, 1169373.4376400699839 ] ] ] ] } },
{ "type": "Feature", "properties": { "fid": 27 }, "geometry": { "type": "MultiPolygon", "coordinates": [ [ [ [ 850123.933427941519767, 1168754.216102282749489 ], [ 850121.99356508476194, 1168756.801782179623842 ], [ 850143.970944361295551, 1168776.844531028997153 ], [ 850146.557300039799884, 1168774.25888816290535 ], [ 850123.933427941519767, 1168754.216102282749489 ] ] ] ] } },
{ "type": "Feature", "properties": { "fid": 28 }, "geometry": { "type": "MultiPolygon", "coordinates": [ [ [ [ 850121.347072267322801, 1168756.801718208706006 ], [ 850118.76071659300942, 1168759.387334134895355 ], [ 850116.820853731944226, 1168761.973040971904993 ], [ 850139.444698889623396, 1168782.015826849499717 ], [ 850141.384485852904618, 1168780.076601436827332 ], [ 850130.395834161317907, 1168769.731999770039693 ], [ 850132.335723958676681, 1168767.146319875726476 ], [ 850121.347072267322801, 1168756.801718208706006 ] ] ] ] } },
{ "type": "Feature", "properties": { "fid": 29 }, "geometry": { "type": "MultiPolygon", "coordinates": [ [ [ [ 849851.083127728896216, 1168959.766454249853268 ], [ 849849.789860523655079, 1168961.705743636004627 ], [ 849851.729106363025494, 1168962.998871449846774 ], [ 849853.022400508867577, 1168961.059582066256553 ], [ 849851.083127728896216, 1168959.766454249853268 ] ] ] ] } }
]
}
