{
"type": "FeatureCollection",
"name": "viaTractor",
"crs": { "type": "name", "properties": { "name": "urn:ogc:def:crs:EPSG::3116" } },
"features": [
{ "type": "Feature", "properties": { "id": null, "Longitudes": 598.813 }, "geometry": { "type": "MultiLineString", "coordinates": [ [ [ 850143.66200070863124, 1168747.3691847382579 ], [ 850162.886398696689866, 1168763.014000158058479 ], [ 850162.886398696689866, 1168763.014000158058479 ], [ 850144.511951618012972, 1168782.035434809746221 ], [ 850111.256790355895646, 1168818.913726481609046 ], [ 850075.93126885953825, 1168857.99177590245381 ], [ 850035.429846777697094, 1168903.798496084287763 ], [ 849999.974927766714245, 1168943.264738049125299 ], [ 849962.708443550858647, 1168984.930737762711942 ], [ 849917.160518398042768, 1169035.007575927767903 ], [ 849869.412835496361367, 1169087.542966871056706 ], [ 849838.875022041611373, 1169121.186320676933974 ], [ 849804.325885633123107, 1169159.229189980542287 ], [ 849777.60529886034783, 1169188.505377667723224 ] ] ] } },
{ "type": "Feature", "properties": { "id": null, "Longitudes": 583.914 }, "geometry": { "type": "MultiLineString", "coordinates": [ [ [ 849777.60529886034783, 1169188.505377667723224 ], [ 849692.202939199167304, 1169100.967959014466032 ], [ 849684.050895777065307, 1169097.215431089978665 ], [ 849678.22800761833787, 1169093.85109570925124 ], [ 849668.846687807003036, 1169090.616157843265682 ], [ 849660.500548112788238, 1169090.422061571385711 ], [ 849654.6776599540608, 1169089.645676483400166 ], [ 849653.38368480768986, 1169088.869291395647451 ], [ 849652.990790561889298, 1169087.516852340428159 ], [ 849647.625495406333357, 1169079.099779040552676 ], [ 849639.020560682867654, 1169066.289425091352314 ], [ 849625.175026616547257, 1169044.680040146922693 ], [ 849607.706362140364945, 1169017.118369529023767 ], [ 849605.168770120479167, 1169013.24149283207953 ], [ 849598.389741086401045, 1169002.884642918594182 ], [ 849583.120834358967841, 1168987.48633867665194 ], [ 849568.628312719520181, 1168974.675984727451578 ], [ 849547.79531286272686, 1168958.242500368505716 ], [ 849544.831287804292515, 1168955.493259734474123 ], [ 849529.938455842784606, 1168941.679618494585156 ], [ 849512.081598822609521, 1168924.340351533144712 ], [ 849492.02498405368533, 1168910.624214981682599 ], [ 849479.0852325897431, 1168906.742289542220533 ], [ 849463.428133318549953, 1168907.648072144715115 ], [ 849451.394164456985891, 1168906.871687056962401 ], [ 849440.136580683407374, 1168903.76614670525305 ], [ 849429.525984483305365, 1168896.390488371020183 ], [ 849424.738276441581547, 1168887.979649919550866 ], [ 849420.98574851709418, 1168881.250979158328846 ], [ 849418.365448845434003, 1168876.592668630881235 ], [ 849415.502528834040277, 1168871.83730996819213 ], [ 849411.555904637556523, 1168865.399783615255728 ], [ 849408.159219878492877, 1168860.126834893831983 ], [ 849405.571269585634582, 1168854.692139279097319 ], [ 849402.336331719649024, 1168847.381179701769724 ], [ 849402.142235447769053, 1168841.364195271162316 ], [ 849402.271632962394506, 1168837.029378530802205 ], [ 849402.595126748899929, 1168832.823959304951131 ], [ 849403.953800652641803, 1168828.100950020598248 ], [ 849405.571269585634582, 1168825.189505941234529 ], [ 849407.835726091754623, 1168821.372279259376228 ], [ 849412.170542832231149, 1168815.937583644408733 ], [ 849419.546201166580431, 1168808.950117853935808 ], [ 849427.754074127646163, 1168802.10091879661195 ] ] ] } },
{ "type": "Feature", "properties": { "id": null, "Longitudes": 553.276 }, "geometry": { "type": "MultiLineString", "coordinates": [ [ [ 849777.60529886034783, 1169188.505377667723224 ], [ 849759.02866816543974, 1169208.743957690894604 ], [ 849739.061014187755063, 1169230.021761504700407 ], [ 849723.145119887194596, 1169247.781570388469845 ], [ 849719.651386992074549, 1169251.420875487849116 ], [ 849710.868530685896985, 1169259.864063318120316 ], [ 849700.484380136243999, 1169270.054117595776916 ], [ 849689.663512974511832, 1169279.95302746584639 ], [ 849677.241351569187827, 1169292.326664803083986 ], [ 849663.411992192268372, 1169305.234066888224334 ], [ 849651.329499262967147, 1169317.462132021784782 ], [ 849638.276524973800406, 1169329.641673087142408 ], [ 849627.067465268191881, 1169340.89925686060451 ], [ 849613.723346571088769, 1169353.51551453769207 ], [ 849599.845463126082905, 1169366.956681370735168 ], [ 849589.558360712369904, 1169376.807067172368988 ], [ 849577.864060326828621, 1169388.161699082236737 ], [ 849573.52115624200087, 1169392.286244861781597 ], [ 849559.44917652499862, 1169406.406748646637425 ], [ 849546.553905457141809, 1169418.173835133900866 ], [ 849538.632351358188316, 1169425.937686012126505 ], [ 849530.771452343906276, 1169433.45891655026935 ], [ 849521.551879425649531, 1169442.581441332120448 ], [ 849513.982124819303863, 1169449.665955258300528 ], [ 849506.994659028947353, 1169456.556372913066298 ], [ 849500.880626462283544, 1169462.670405479846522 ], [ 849495.397406779346056, 1169467.959528890671209 ], [ 849479.8211809550412, 1169482.589535390026867 ], [ 849449.833306937711313, 1169511.849548387341201 ], [ 849405.67640506720636, 1169554.841872625984251 ], [ 849383.18098428263329, 1169576.261740676825866 ] ] ] } },
{ "type": "Feature", "properties": { "id": null, "Longitudes": 565.251 }, "geometry": { "type": "MultiLineString", "coordinates": [ [ [ 849605.168770120479167, 1169013.24149283207953 ], [ 849552.316138532245532, 1169053.685298431199044 ], [ 849519.707964843371883, 1169078.917813785606995 ], [ 849483.800154531141743, 1169105.800147451693192 ], [ 849448.086440491024405, 1169132.585432981606573 ], [ 849413.05206340260338, 1169160.34119987138547 ], [ 849385.005152104655281, 1169181.206549106864259 ], [ 849356.084807583014481, 1169202.945331566268578 ], [ 849326.970366789377294, 1169225.363450977252796 ], [ 849300.573273802991025, 1169245.355366989038885 ], [ 849282.231176103116013, 1169259.718491113977507 ], [ 849258.357334652217105, 1169277.38125186203979 ], [ 849235.356926425127313, 1169295.335157017922029 ], [ 849208.668689031037502, 1169315.424121165648103 ], [ 849180.815874004969373, 1169336.386518536834046 ], [ 849170.528771591372788, 1169343.85922500770539 ], [ 849158.980043409857899, 1169353.369942334014922 ], [ 849155.623786413809285, 1169355.840661243069917 ] ] ] } },
{ "type": "Feature", "properties": { "id": null, "Longitudes": 416.074 }, "geometry": { "type": "MultiLineString", "coordinates": [ [ [ 849605.168770120479167, 1169013.24149283207953 ], [ 849618.211822862620465, 1169003.414363994030282 ], [ 849633.30280800734181, 1168991.28334699687548 ], [ 849651.839001979329623, 1168977.599559823749587 ], [ 849670.569292223313823, 1168963.624628243036568 ], [ 849690.561208234867081, 1168947.999878350412473 ], [ 849713.561616461956874, 1168930.434165738057345 ], [ 849736.562024688930251, 1168913.06254939804785 ], [ 849777.225193664082326, 1168881.910097748739645 ], [ 849820.799806718481705, 1168847.749153884127736 ], [ 849858.648579750326462, 1168819.022905634017661 ], [ 849898.244219229673035, 1168788.355694664875045 ], [ 849935.148215261870064, 1168759.832958626560867 ] ] ] } },
{ "type": "Feature", "properties": { "id": null, "Longitudes": 430.131 }, "geometry": { "type": "MultiLineString", "coordinates": [ [ [ 849544.831287804292515, 1168955.493259734474123 ], [ 849601.6165916104801, 1168911.509779221843928 ], [ 849698.858823861344717, 1168836.976810789899901 ], [ 849791.248649313114583, 1168766.325767797417939 ], [ 849857.241381778847426, 1168715.666640816256404 ], [ 849885.770209201378748, 1168693.251302043441683 ] ] ] } },
{ "type": "Feature", "properties": { "id": null, "Longitudes": 543.444 }, "geometry": { "type": "MultiLineString", "coordinates": [ [ [ 849544.831287804292515, 1168955.493259734474123 ], [ 849518.980103824520484, 1168974.688115743454546 ], [ 849497.532465773168951, 1168991.089250723831356 ], [ 849479.82118095702026, 1169004.530417556874454 ], [ 849438.139006554032676, 1169035.779917342355475 ], [ 849416.060555618838407, 1169052.569244866492227 ], [ 849394.612917567486875, 1169069.018903914839029 ], [ 849352.736646892619319, 1169101.530029467772692 ], [ 849313.141007413156331, 1169131.906096029095352 ], [ 849270.245731310686097, 1169164.417221582029015 ], [ 849243.072253236547112, 1169185.670763361034915 ], [ 849222.012807729071938, 1169201.683705797651783 ], [ 849185.910901144961827, 1169229.245376415550709 ], [ 849128.070212101563811, 1169273.596374557586387 ], [ 849112.80519625719171, 1169285.149901468772441 ] ] ] } },
{ "type": "Feature", "properties": { "id": null, "Longitudes": 142.293 }, "geometry": { "type": "MultiLineString", "coordinates": [ [ [ 849427.754074127646163, 1168802.10091879661195 ], [ 849439.982921139220707, 1168791.800903490977362 ], [ 849448.814301513368264, 1168783.84295634040609 ], [ 849455.607671031844802, 1168774.332239014562219 ], [ 849460.363029694883153, 1168764.336281008785591 ], [ 849462.789233094197698, 1168758.076676238095388 ], [ 849463.759714454296045, 1168750.749541972065344 ], [ 849465.021340221981518, 1168738.812621246557683 ], [ 849465.31248462991789, 1168729.690096464706585 ], [ 849466.719682601396926, 1168720.179379138862714 ], [ 849468.369500913308002, 1168707.902789937332273 ], [ 849470.892752448678948, 1168694.89833971625194 ], [ 849474.095340936095454, 1168683.252563398564234 ], [ 849479.141844006953761, 1168675.682808792218566 ] ] ] } }
]
}
